{"type":"FeatureCollection","features":[{"type":"Feature","properties":{"icon-id":"i15cc644b5f"},"geometry":{"type":"Point","coordinates":[15.0007777,52.3036847,0]}},{"type":"Feature","properties":{"icon-id":"i15cc644b5f"},"geometry":{"type":"Point","coordinates":[14.9997377,52.3037857,0]}},{"type":"Feature","properties":{"name":"Food Court\n","icon-id":"i7e5cbd76c6","label":"Food Court","category":"food"},"geometry":{"type":"Point","coordinates":[15.0012294,52.303426,0]}},{"type":"Feature","properties":{"name":"Stork","icon-id":"i1cd9dd3436","label":"Stork"},"geometry":{"type":"Point","coordinates":[14.9965191,52.3075753,0]}},{"type":"Feature","properties":{"name":"Food Court\n","icon-id":"i7e5cbd76c6","label":"Food Court","category":"food"},"geometry":{"type":"Point","coordinates":[15.0025214,52.3023693,0]}},{"type":"Feature","properties":{"name":"Crew 3","stroke":"#7cb342","stroke-opacity":1,"stroke-width":1.2,"fill":"#7cb342","fill-opacity":0.30196078431372547,"label":"Crew 3"},"geometry":{"type":"Polygon","coordinates":[[[14.997957,52.3045284,0],[14.9996243,52.3041449,0],[14.9998185,52.3043325,0],[14.9996609,52.3047084,0],[14.9994952,52.3050729,0],[14.998531,52.3048442,0],[14.9983325,52.3049033,0],[14.9977371,52.3047622,0],[14.997957,52.3045284,0]]]}},{"type":"Feature","properties":{"icon-id":"i19ff75cb77"},"geometry":{"type":"Point","coordinates":[15.0022232,52.3051706,0]}},{"type":"Feature","properties":{"name":"Owl","stroke":"#f9a825","stroke-opacity":1,"stroke-width":3.601,"fill":"#f9a825","fill-opacity":0.30196078431372547,"label":"Owl"},"geometry":{"type":"Polygon","coordinates":[[[14.9970882,52.3062961,0],[14.9969943,52.3061157,0],[14.9971499,52.3060632,0],[14.9975924,52.3059091,0],[14.9982147,52.3059255,0],[14.9974959,52.3063879,0],[14.9972974,52.3063453,0],[14.9970882,52.3062961,0]]]}},{"type":"Feature","properties":{"icon-id":"i19ff75cb77"},"geometry":{"type":"Point","coordinates":[15.003215,52.3047114,0]}},{"type":"Feature","properties":{"icon-id":"i15cc644b5f"},"geometry":{"type":"Point","coordinates":[14.9988163,52.3045196,0]}},{"type":"Feature","properties":{"name":"Tentation Lobby\n","icon-id":"i3926b67b0c","label":"Tentation Lobby"},"geometry":{"type":"Point","coordinates":[14.9989886,52.3051524,0]}},{"type":"Feature","properties":{"icon-id":"i19ff75cb77"},"geometry":{"type":"Point","coordinates":[14.9986338,52.304513,0]}},{"type":"Feature","properties":{"name":"Fox (Tentation)","stroke":"#ce93d8","stroke-opacity":1,"stroke-width":3.801,"fill":"#ce93d8","fill-opacity":0.30196078431372547,"label":"Fox (Tentation)"},"geometry":{"type":"Polygon","coordinates":[[[14.9977058,52.3047721,0],[14.9971747,52.3045294,0],[14.9976558,52.3039889,0],[14.9983012,52.304231,0],[14.9987519,52.3040275,0],[14.9989503,52.3042522,0],[14.9983871,52.3044113,0],[14.9978774,52.3045196,0],[14.9977058,52.3047721,0]]]}},{"type":"Feature","properties":{"icon-id":"i15cc644b5f"},"geometry":{"type":"Point","coordinates":[14.9972062,52.3047746,0]}},{"type":"Feature","properties":{"name":"Crew 2","stroke":"#7cb342","stroke-opacity":1,"stroke-width":1.2,"fill":"#7cb342","fill-opacity":0.30196078431372547,"label":"Crew 2"},"geometry":{"type":"Polygon","coordinates":[[[14.9974369,52.305201,0],[14.9966269,52.3051584,0],[14.9971372,52.3045425,0],[14.9976944,52.3048008,0],[14.9974369,52.305201,0]]]}},{"type":"Feature","properties":{"name":"Silent Camp\n","stroke":"#097138","stroke-opacity":1,"stroke-width":3.301,"fill":"#097138","fill-opacity":0.30196078431372547,"label":"Silent Camp"},"geometry":{"type":"Polygon","coordinates":[[[14.9960663,52.30817,0],[14.9964097,52.307929,0],[14.996981,52.3076994,0],[14.9971634,52.3076141,0],[14.9975979,52.3075649,0],[14.9981343,52.3074567,0],[14.9985715,52.3074075,0],[14.9983113,52.3078765,0],[14.9982255,52.3080307,0],[14.9972785,52.3081103,0],[14.9965461,52.3093904,0],[14.9960469,52.3093398,0],[14.9967221,52.3081168,0],[14.9960663,52.30817,0]]]}},{"type":"Feature","properties":{"stroke":"#b2ebf2","stroke-opacity":1,"stroke-width":1.2,"fill":"#b2ebf2","fill-opacity":0.30196078431372547},"geometry":{"type":"Polygon","coordinates":[[[14.9983723,52.3056706,0],[14.9985011,52.3056247,0],[14.9985225,52.3054082,0],[14.9993165,52.3053393,0],[14.9992306,52.3056674,0],[14.9993433,52.305956,0],[14.9984313,52.305815,0],[14.9983723,52.3056706,0]]]}},{"type":"Feature","properties":{"stroke":"#ffea00","stroke-opacity":1,"stroke-width":4.201,"fill":"#ffea00","fill-opacity":0.30196078431372547},"geometry":{"type":"Polygon","coordinates":[[[14.9960806,52.3077296,0],[14.9962523,52.3074934,0],[14.9965473,52.3073753,0],[14.9967566,52.3074311,0],[14.9972447,52.3075524,0],[14.9966064,52.3077952,0],[14.996078,52.3080329,0],[14.9960806,52.3077296,0]]]}},{"type":"Feature","properties":{"name":"Tentation\n","icon-id":"i83f7a33131","label":"Tentation"},"geometry":{"type":"Point","coordinates":[14.9974798,52.3064536,0]}},{"type":"Feature","properties":{"name":"Entry","icon-id":"i3926b67b0c","label":"Entry"},"geometry":{"type":"Point","coordinates":[14.9986191,52.3076959,0]}},{"type":"Feature","properties":{"stroke":"#b2ebf2","stroke-opacity":1,"stroke-width":1.2,"fill":"#b2ebf2","fill-opacity":0.30196078431372547},"geometry":{"type":"Polygon","coordinates":[[[14.9978714,52.3064076,0],[14.9978553,52.3062732,0],[14.9983703,52.3060599,0],[14.9989604,52.3060927,0],[14.9991535,52.3063748,0],[14.9985849,52.306401,0],[14.9985285,52.3066929,0],[14.9983864,52.3069258,0],[14.9978177,52.3069357,0],[14.9978714,52.3064076,0]]]}},{"type":"Feature","properties":{"name":"Eagle","stroke":"#817717","stroke-opacity":1,"stroke-width":2.801,"fill":"#817717","fill-opacity":0.30196078431372547,"label":"Eagle"},"geometry":{"type":"Polygon","coordinates":[[[14.9983059,52.3056664,0],[14.9983167,52.3057976,0],[14.9982308,52.3058631,0],[14.9980216,52.3058566,0],[14.9976461,52.3058534,0],[14.9976247,52.3058795,0],[14.9976514,52.3057943,0],[14.9976837,52.3057418,0],[14.9977802,52.3056762,0],[14.9981021,52.305135,0],[14.9985044,52.3051711,0],[14.9984293,52.3055877,0],[14.9983059,52.3056664,0]]]}},{"type":"Feature","properties":{"name":"Chill Space\n","stroke":"#f48fb1","stroke-opacity":1,"stroke-width":1.2,"fill":"#f48fb1","fill-opacity":0.30196078431372547,"label":"Chill Space"},"geometry":{"type":"Polygon","coordinates":[[[14.9971848,52.3069522,0],[14.9973857,52.3068596,0],[14.997614,52.3068735,0],[14.9978393,52.3070277,0],[14.9972116,52.3070703,0],[14.9971848,52.3069522,0]]]}},{"type":"Feature","properties":{"stroke":"#ff5252","stroke-opacity":1,"stroke-width":3.801,"fill":"#ff5252","fill-opacity":0.30196078431372547},"geometry":{"type":"Polygon","coordinates":[[[14.9965927,52.3073614,0],[14.9970165,52.3070892,0],[14.9971989,52.307099,0],[14.997856,52.3071088,0],[14.997966,52.3070333,0],[14.9984542,52.3070235,0],[14.9984509,52.3071326,0],[14.9985024,52.3073352,0],[14.9977514,52.3074303,0],[14.9973437,52.3075385,0],[14.9967804,52.3074106,0],[14.9965927,52.3073614,0]]]}},{"type":"Feature","properties":{"name":"Silent Camp\n","icon-id":"i19ff75cb77","label":"Silent Camp"},"geometry":{"type":"Point","coordinates":[14.9975147,52.3078503,0]}},{"type":"Feature","properties":{"icon-id":"i15cc644b5f"},"geometry":{"type":"Point","coordinates":[15.0010499,52.3042304,0]}},{"type":"Feature","properties":{"name":"Silent Camp","icon-id":"i3354fba2e8","label":"Silent Camp"},"geometry":{"type":"Point","coordinates":[14.9973001,52.3078765,0]}},{"type":"Feature","properties":{"icon-id":"i19ff75cb77"},"geometry":{"type":"Point","coordinates":[15.0037575,52.3041567,0]}},{"type":"Feature","properties":{"icon-id":"i19ff75cb77"},"geometry":{"type":"Point","coordinates":[15.0043154,52.3033071,0]}},{"type":"Feature","properties":{"icon-id":"i19ff75cb77"},"geometry":{"type":"Point","coordinates":[15.0034007,52.3035858,0]}},{"type":"Feature","properties":{"icon-id":"i19ff75cb77"},"geometry":{"type":"Point","coordinates":[15.0036502,52.3029988,0]}},{"type":"Feature","properties":{"icon-id":"i19ff75cb77"},"geometry":{"type":"Point","coordinates":[15.0039024,52.3036188,0]}},{"type":"Feature","properties":{"icon-id":"i19ff75cb77"},"geometry":{"type":"Point","coordinates":[15.0017484,52.303453,0]}},{"type":"Feature","properties":{"name":"Crew 6","stroke":"#7cb342","stroke-opacity":1,"stroke-width":1.2,"fill":"#7cb342","fill-opacity":0.30196078431372547,"label":"Crew 6"},"geometry":{"type":"Polygon","coordinates":[[[15.0038091,52.3008165,0],[15.0042543,52.3005213,0],[15.0043562,52.3003113,0],[15.0048444,52.3001178,0],[15.0060299,52.2999537,0],[15.0057832,52.3003179,0],[15.0050536,52.3004491,0],[15.0038091,52.3008165,0]]]}},{"type":"Feature","properties":{"icon-id":"icd210281fb"},"geometry":{"type":"Point","coordinates":[14.9974534,52.3062218,0]}},{"type":"Feature","properties":{"icon-id":"i24bceaffa6"},"geometry":{"type":"Point","coordinates":[14.997947,52.305764,0]}},{"type":"Feature","properties":{"name":"Artist Camp\n","icon-id":"i19ff75cb77","label":"Artist Camp"},"geometry":{"type":"Point","coordinates":[14.9982179,52.3064613,0]}},{"type":"Feature","properties":{"name":"Boar","icon-id":"id1ee2a26ad","label":"Boar"},"geometry":{"type":"Point","coordinates":[14.9973291,52.3071849,0]}},{"type":"Feature","properties":{"stroke":"#0f9d58","stroke-opacity":1,"stroke-width":4.101,"fill":"#0f9d58","fill-opacity":0.30196078431372547},"geometry":{"type":"Polygon","coordinates":[[[14.9962102,52.30747,0],[14.9965052,52.3072699,0],[14.9966845,52.3070516,0],[14.9969558,52.3068829,0],[14.9969826,52.3067582,0],[14.9974762,52.3067418,0],[14.9970899,52.3069583,0],[14.9965535,52.3073289,0],[14.9962102,52.30747,0]]]}},{"type":"Feature","properties":{"name":"Frog","icon-id":"i54dd40e78e","label":"Frog"},"geometry":{"type":"Point","coordinates":[14.9967574,52.3070632,0]}},{"type":"Feature","properties":{"stroke":"#0288d1","stroke-opacity":1,"stroke-width":1.2},"geometry":{"type":"LineString","coordinates":[[14.9984102,52.3059068,0],[14.9983359,52.3056644,0],[14.9984753,52.3056021,0],[14.9984861,52.3053807,0],[14.9987757,52.3051855,0]]}},{"type":"Feature","properties":{"stroke":"#0288d1","stroke-opacity":1,"stroke-width":1.2},"geometry":{"type":"LineString","coordinates":[[15.0028777,52.3052377,0],[15.0026229,52.3047424,0]]}},{"type":"Feature","properties":{"stroke":"#0288d1","stroke-opacity":1,"stroke-width":1.2},"geometry":{"type":"LineString","coordinates":[[15.0027472,52.3047045,0],[15.0024227,52.3042026,0]]}},{"type":"Feature","properties":{"icon-id":"i19ff75cb77"},"geometry":{"type":"Point","coordinates":[15.0030074,52.3043797,0]}},{"type":"Feature","properties":{"stroke":"#0288d1","stroke-opacity":1,"stroke-width":1.2},"geometry":{"type":"LineString","coordinates":[[15.0032389,52.3039764,0],[15.0028204,52.30334,0]]}},{"type":"Feature","properties":{"stroke":"#0288d1","stroke-opacity":1,"stroke-width":1.2},"geometry":{"type":"LineString","coordinates":[[15.0038003,52.3038274,0],[15.0034087,52.3031911,0]]}},{"type":"Feature","properties":{"icon-id":"i99345cbd7b","category":"wc"},"geometry":{"type":"Point","coordinates":[15.0043431,52.3034745,0]}},{"type":"Feature","properties":{"stroke":"#0288d1","stroke-opacity":1,"stroke-width":1.2},"geometry":{"type":"LineString","coordinates":[[15.0045034,52.3036311,0],[15.0047704,52.3031809,0],[15.0046122,52.3028824,0]]}},{"type":"Feature","properties":{"name":"Water\n","icon-id":"i553e53a1ec","label":"Water","category":"water"},"geometry":{"type":"Point","coordinates":[15.0034027,52.302579,0]}},{"type":"Feature","properties":{"name":"B1","icon-id":"i19ff75cb77","label":"B1"},"geometry":{"type":"Point","coordinates":[14.9999935,52.304656,0]}},{"type":"Feature","properties":{"name":"Artist Camp\n","icon-id":"i15cc644b5f","label":"Artist Camp"},"geometry":{"type":"Point","coordinates":[14.9987008,52.3057219,0]}},{"type":"Feature","properties":{"icon-id":"i15cc644b5f"},"geometry":{"type":"Point","coordinates":[15.0002221,52.3042806,0]}},{"type":"Feature","properties":{"stroke":"#0288d1","stroke-opacity":1,"stroke-width":1.2},"geometry":{"type":"LineString","coordinates":[[15.0008282,52.3041658,0],[15.000619,52.3038771,0]]}},{"type":"Feature","properties":{"name":"BEL AIR (Backstage)","stroke":"#424242","stroke-opacity":1,"stroke-width":1.2,"fill":"#424242","fill-opacity":0.6901960784313725,"label":"BEL AIR (Backstage)"},"geometry":{"type":"Polygon","coordinates":[[[15.0001573,52.3067723,0],[15.0001466,52.3066149,0],[14.9999883,52.3063541,0],[15.0000018,52.3062869,0],[15.0002044,52.3060483,0],[15.0020921,52.305578,0],[15.0022095,52.3057572,0],[15.0018474,52.3060245,0],[15.0014451,52.3063017,0],[15.0010267,52.3065543,0],[15.0001573,52.3067723,0]]]}},{"type":"Feature","properties":{"name":"Accreditation On Site\n","stroke":"#f48fb1","stroke-opacity":1,"stroke-width":1.2,"fill":"#f48fb1","fill-opacity":0.30196078431372547,"label":"Accreditation On Site"},"geometry":{"type":"Polygon","coordinates":[[[14.9995802,52.3069151,0],[14.9998645,52.3066659,0],[14.9999235,52.3064002,0],[15.000004,52.3063772,0],[15.0001274,52.3066167,0],[15.0001381,52.3067741,0],[14.9995802,52.3069151,0]]]}},{"type":"Feature","properties":{"name":"Obersandberg (Backstage)","stroke":"#424242","stroke-opacity":1,"stroke-width":1.2,"fill":"#424242","fill-opacity":0.7098039215686275,"label":"Obersandberg (Backstage)"},"geometry":{"type":"Polygon","coordinates":[[[15.0003063,52.3059434,0],[15.000437,52.3058185,0],[15.0005121,52.3054676,0],[15.0004243,52.3052873,0],[15.000199,52.3051692,0],[15.0004297,52.3048117,0],[15.0009125,52.3048248,0],[15.0011539,52.3045854,0],[15.0014457,52.3045168,0],[15.0020712,52.3055333,0],[15.0016313,52.3056382,0],[15.0002044,52.3060483,0],[15.0003063,52.3059434,0]]]}},{"type":"Feature","properties":{"name":"Crew 1","stroke":"#7cb342","stroke-opacity":1,"stroke-width":1.2,"fill":"#7cb342","fill-opacity":0.30196078431372547,"label":"Crew 1"},"geometry":{"type":"Polygon","coordinates":[[[14.9981021,52.305135,0],[14.9981456,52.3048889,0],[14.9983173,52.3049414,0],[14.9985212,52.3048771,0],[14.9986201,52.3049027,0],[14.9985044,52.3051711,0],[14.9981021,52.305135,0]]]}},{"type":"Feature","properties":{"name":"Artist Care","icon-id":"id36d15da10","label":"Artist Care"},"geometry":{"type":"Point","coordinates":[14.9985988,52.3060558,0]}},{"type":"Feature","properties":{"name":"Szunnys Top-up","icon-id":"ia7203a5d47","label":"Szunnys Top-up","category":"topup"},"geometry":{"type":"Point","coordinates":[14.9970948,52.3052294,0]}},{"type":"Feature","properties":{"name":"Szunnys Top-up","icon-id":"ia7203a5d47","label":"Szunnys Top-up","category":"topup"},"geometry":{"type":"Point","coordinates":[14.9994659,52.3059838,0]}},{"type":"Feature","properties":{"name":"Hirschberg (Backstage)","stroke":"#424242","stroke-opacity":1,"stroke-width":1.2,"fill":"#424242","fill-opacity":0.7019607843137254,"label":"Hirschberg (Backstage)"},"geometry":{"type":"Polygon","coordinates":[[[14.9999519,52.306141,0],[14.9993725,52.3056523,0],[14.9997051,52.30497,0],[15.0003917,52.3048191,0],[15.0001634,52.3051723,0],[15.0003887,52.3052839,0],[15.0004615,52.3054751,0],[15.0004025,52.3058097,0],[15.0002469,52.3059212,0],[14.9999519,52.306141,0]]]}},{"type":"Feature","properties":{"icon-id":"i7706a39b1f"},"geometry":{"type":"Point","coordinates":[15.0017673,52.3047436,0]}},{"type":"Feature","properties":{"name":"Ops Parking","stroke":"#0097a7","stroke-opacity":1,"stroke-width":1.2,"fill":"#0097a7","fill-opacity":0.30196078431372547,"label":"Ops Parking"},"geometry":{"type":"Polygon","coordinates":[[[14.9982255,52.3080307,0],[14.9985754,52.3074186,0],[14.9988088,52.3074039,0],[14.9984628,52.3080139,0],[14.9982255,52.3080307,0]]]}},{"type":"Feature","properties":{"icon-id":"i19ff75cb77"},"geometry":{"type":"Point","coordinates":[14.9984475,52.3037206,0]}},{"type":"Feature","properties":{"icon-id":"i553e53a1ec","category":"water"},"geometry":{"type":"Point","coordinates":[15.0033548,52.3037544,0]}},{"type":"Feature","properties":{"name":"B6","stroke":"#f9a825","stroke-opacity":1,"stroke-width":1.2,"fill":"#f9a825","fill-opacity":0.30196078431372547,"label":"B6"},"geometry":{"type":"Polygon","coordinates":[[[14.9998479,52.3042752,0],[14.9997004,52.3041161,0],[14.9999873,52.3040341,0],[14.9998479,52.3042752,0]]]}},{"type":"Feature","properties":{"name":"B5","stroke":"#f9a825","stroke-opacity":1,"stroke-width":1.2,"fill":"#f9a825","fill-opacity":0.30196078431372547,"label":"B5"},"geometry":{"type":"Polygon","coordinates":[[[14.9996466,52.3040561,0],[14.9993167,52.3035919,0],[14.9991987,52.3033623,0],[14.9992506,52.3032062,0],[15.0003413,52.3033443,0],[15.0000195,52.3039757,0],[14.9996466,52.3040561,0]]]}},{"type":"Feature","properties":{"icon-id":"i99345cbd7b","category":"wc"},"geometry":{"type":"Point","coordinates":[14.9975713,52.3046549,0]}},{"type":"Feature","properties":{"icon-id":"i7706a39b1f"},"geometry":{"type":"Point","coordinates":[14.9976786,52.3046992,0]}},{"type":"Feature","properties":{"name":"B1","stroke":"#f9a825","stroke-opacity":1,"stroke-width":1.2,"fill":"#f9a825","fill-opacity":0.30196078431372547,"label":"B1"},"geometry":{"type":"Polygon","coordinates":[[[14.9997635,52.3048973,0],[14.9999083,52.3044676,0],[15.0003804,52.3046873,0],[14.9997635,52.3048973,0]]]}},{"type":"Feature","properties":{"name":"C1","stroke":"#f9a825","stroke-opacity":1,"stroke-width":1.2,"fill":"#f9a825","fill-opacity":0.30196078431372547,"label":"C1"},"geometry":{"type":"Polygon","coordinates":[[[15.00076,52.3044441,0],[15.000929,52.3041424,0],[15.0011221,52.3039931,0],[15.0013045,52.3043835,0],[15.0011221,52.3043818,0],[15.00076,52.3044441,0]]]}},{"type":"Feature","properties":{"name":"C2","stroke":"#f9a825","stroke-opacity":1,"stroke-width":1.2,"fill":"#f9a825","fill-opacity":0.30196078431372547,"label":"C2"},"geometry":{"type":"Polygon","coordinates":[[[15.0015173,52.3044226,0],[15.0011874,52.3039306,0],[15.0013162,52.303737,0],[15.0015871,52.303655,0],[15.0019787,52.3042963,0],[15.0015173,52.3044226,0]]]}},{"type":"Feature","properties":{"name":"C6","stroke":"#f9a825","stroke-opacity":1,"stroke-width":1.2,"fill":"#f9a825","fill-opacity":0.30196078431372547,"label":"C6"},"geometry":{"type":"Polygon","coordinates":[[[15.0038001,52.3037761,0],[15.0034407,52.3031922,0],[15.003945,52.3030692,0],[15.0042427,52.3036564,0],[15.0038001,52.3037761,0]]]}},{"type":"Feature","properties":{"name":"C7","stroke":"#f9a825","stroke-opacity":1,"stroke-width":1.2,"fill":"#f9a825","fill-opacity":0.30196078431372547,"label":"C7"},"geometry":{"type":"Polygon","coordinates":[[[15.0042954,52.303608,0],[15.003995,52.3030553,0],[15.004577,52.3029241,0],[15.0046709,52.3032177,0],[15.0042954,52.303608,0]]]}},{"type":"Feature","properties":{"name":"W5","stroke":"#f9a825","stroke-opacity":1,"stroke-width":1.2,"fill":"#f9a825","fill-opacity":0.30196078431372547,"label":"W5"},"geometry":{"type":"Polygon","coordinates":[[[15.0037379,52.304377,0],[15.0035153,52.303926,0],[15.0041831,52.3037439,0],[15.0037379,52.304377,0]]]}},{"type":"Feature","properties":{"name":"W4","stroke":"#f9a825","stroke-opacity":1,"stroke-width":1.2,"fill":"#f9a825","fill-opacity":0.30196078431372547,"label":"W4"},"geometry":{"type":"Polygon","coordinates":[[[15.0027465,52.304662,0],[15.002473,52.3042127,0],[15.00346,52.3039502,0],[15.0037014,52.3044144,0],[15.0027465,52.304662,0]]]}},{"type":"Feature","properties":{"name":"Wasabi","stroke":"#097138","stroke-opacity":1,"stroke-width":1.2,"fill":"#097138","fill-opacity":0.30196078431372547,"label":"Wasabi"},"geometry":{"type":"Polygon","coordinates":[[[14.998973,52.3042243,0],[14.9986565,52.3038471,0],[14.9980182,52.3037027,0],[14.9980825,52.3034501,0],[14.9984473,52.3034928,0],[14.9988228,52.3033649,0],[14.998914,52.303601,0],[14.9992144,52.3035387,0],[14.9995792,52.3040734,0],[14.998973,52.3042243,0]]]}},{"type":"Feature","properties":{"name":"N1","stroke":"#f48fb1","stroke-opacity":1,"stroke-width":1.2,"fill":"#f48fb1","fill-opacity":0.30196078431372547,"label":"N1"},"geometry":{"type":"Polygon","coordinates":[[[14.9981125,52.3033682,0],[14.9981715,52.3032304,0],[14.9980535,52.3031254,0],[14.9981072,52.303027,0],[14.9991371,52.3032107,0],[14.9990888,52.3032993,0],[14.9986275,52.3033124,0],[14.9984827,52.3034338,0],[14.9981125,52.3033682,0]]]}},{"type":"Feature","properties":{"icon-id":"i8218de6352"},"geometry":{"type":"Point","coordinates":[14.9982383,52.3032875,0]}},{"type":"Feature","properties":{"icon-id":"i99345cbd7b","category":"wc"},"geometry":{"type":"Point","coordinates":[14.9991524,52.3030598,0]}},{"type":"Feature","properties":{"name":"Crew 5","stroke":"#7cb342","stroke-opacity":1,"stroke-width":1.2,"fill":"#7cb342","fill-opacity":0.30196078431372547,"label":"Crew 5"},"geometry":{"type":"Polygon","coordinates":[[[14.9993616,52.3031812,0],[14.999941,52.3027613,0],[15.0002843,52.3028204,0],[15.0001448,52.3031058,0],[15.0003219,52.3031353,0],[15.0002521,52.3032829,0],[14.9993616,52.3031812,0]]]}},{"type":"Feature","properties":{"icon-id":"i15cc644b5f"},"geometry":{"type":"Point","coordinates":[15.0023021,52.3033007,0]}},{"type":"Feature","properties":{"icon-id":"i15cc644b5f"},"geometry":{"type":"Point","coordinates":[15.003116,52.3030939,0]}},{"type":"Feature","properties":{"icon-id":"i20445dd9fc"},"geometry":{"type":"Point","coordinates":[15.0047315,52.3018854,0]}},{"type":"Feature","properties":{"name":"Kaiserschmarrn","icon-id":"icd7dd27b21","label":"Kaiserschmarrn","category":"food"},"geometry":{"type":"Point","coordinates":[15.0011493,52.3035078,0]}},{"type":"Feature","properties":{"name":"Village RV Camp","stroke":"#f9a825","stroke-opacity":1,"stroke-width":1.2,"fill":"#f9a825","fill-opacity":0.30196078431372547,"label":"Village RV Camp"},"geometry":{"type":"Polygon","coordinates":[[[14.9849412,52.3119333,0],[14.9851504,52.3108805,0],[14.9855286,52.3102164,0],[14.9860141,52.3099589,0],[14.9859174,52.3109232,0],[14.9877735,52.3109166,0],[14.9875052,52.3119464,0],[14.9849412,52.3119333,0]]]}},{"type":"Feature","properties":{"icon-id":"i15cc644b5f"},"geometry":{"type":"Point","coordinates":[14.9857458,52.3115136,0]}},{"type":"Feature","properties":{"name":"Lichtung Wellness","description":"Book your appointments: https://lichtung-wellness.lovable.app<br><br>Step out of the festival buzz and into a sanctuary of touch, sound, and presence. From deep tissue massage to psychedelic-assisted bodywork, from somatic release to the sound tube experience—our experienced practitioners are here to support your journey.","icon-id":"i28cb842b68","label":"Lichtung Wellness"},"geometry":{"type":"Point","coordinates":[14.9970643,52.3056405,0]}},{"type":"Feature","properties":{"name":"Breakfast Club 08:00-13:00\n","description":"Join the club, and get ready for breakfast buffet. Freshly baked bread, cheese, spreads, platters, cereals, and more. This is some tasty detention. 08:00–13:00","icon-id":"icd7dd27b21","label":"Breakfast Club 08:00-13:00","openMin":480,"closeMin":780,"category":"food"},"geometry":{"type":"Point","coordinates":[15.0022222,52.3028366,0]}},{"type":"Feature","properties":{"name":"Knöedelpuf ","icon-id":"icd7dd27b21","label":"Knöedelpuf","category":"food"},"geometry":{"type":"Point","coordinates":[15.0017658,52.3029203,0]}},{"type":"Feature","properties":{"name":"Pizza Hütte","description":"Straight outta Italy! With Italian ingredients a pizza really can’t get any better. You might even want to order one for your friends extra.","icon-id":"i5be99a8966","label":"Pizza Hütte","category":"food"},"geometry":{"type":"Point","coordinates":[15.0011207,52.3029958,0]}},{"type":"Feature","properties":{"name":"Ali's Tee Bar","description":"Ali really knows how to tea. Come enjoy a fresh herbal brew. Calm your mind, focus your spirit, and relax. Or a bit more. Sip slow, stay awhile.","icon-id":"ic103f98ee5","label":"Ali's Tee Bar","category":"food"},"geometry":{"type":"Point","coordinates":[14.9970454,52.3055273,0]}},{"type":"Feature","properties":{"name":"Kuchnia Polska","description":"When you are really hungry you will always find something to eat at the original Polish Kitchen. Smacznego Garbicz!","icon-id":"icd7dd27b21","label":"Kuchnia Polska","category":"food"},"geometry":{"type":"Point","coordinates":[15.00214,52.3030089,0]}},{"type":"Feature","properties":{"name":"Balla Balla Smoothie","description":"We all know how amazing the state of Balla Balla feels. Now image that as a smoothie! Soft, soothing, super fresh. This is how rave fruits have to be.","icon-id":"id416569a56","label":"Balla Balla Smoothie","category":"food"},"geometry":{"type":"Point","coordinates":[15.0011825,52.3027842,0]}},{"type":"Feature","properties":{"name":"Dumplings & Noodles (24h)","description":"Kungfu Palace - A wise grandmaster once said: feed the belly or hunger will consume you. We believe in those wise words and recommend lots of gyoza and fresh glass noodle salad. Open 24h.","icon-id":"i2f20371137","label":"Dumplings & Noodles (24h)","category":"food"},"geometry":{"type":"Point","coordinates":[15.0011036,52.3024897,0]}},{"type":"Feature","properties":{"name":"Schnitzel Terrace","description":"Stairway to flavor heaven. Enjoy the view over Garbicz with a classic Wiener Schnitzel. Or have traditional Weisswurst breakfast with pretzel and beer. Vegetarians welcome.","icon-id":"i2922c5071c","label":"Schnitzel Terrace","category":"food"},"geometry":{"type":"Point","coordinates":[15.0013635,52.3034706,0]}},{"type":"Feature","properties":{"name":"VooDoo Coffee 7-23","description":"This coffee is black magic. Beans roasted in Cross Mountain, served hot or iced. Perfect with cookies and banana bread. Sweet, eh? Open 7:00 – 23:00","icon-id":"ic927161124","label":"VooDoo Coffee 7-23","openMin":420,"closeMin":1380,"category":"food"},"geometry":{"type":"Point","coordinates":[15.0015275,52.3026062,0]}},{"type":"Feature","properties":{"name":"Vegan Burger 🍔","description":"These burgers are unlike anything you know: completely plant–based for maximum harmony, openness, and appreciation. Just pick your favorite one!","icon-id":"i88f1b42b0b","label":"Vegan Burger","category":"food"},"geometry":{"type":"Point","coordinates":[15.001211,52.3023561,0]}},{"type":"Feature","properties":{"name":"Om Ganesha","description":"Welcome to the tiny Taj Mahal. This temple of flavours offers you authentic Indian food with plenty of healthy spices. To nourish not only the body but also your soul.","icon-id":"icd7dd27b21","label":"Om Ganesha","category":"food"},"geometry":{"type":"Point","coordinates":[15.0022088,52.302507,0]}},{"type":"Feature","properties":{"name":"Burger Bull & Beer 11-23","description":"This is how God created the perfect burger. Freshly baked bun, organic, perfectly seared meat patty, and dressed like you want it. Grab it with a craft beer. Hallelujah! Open: 11:00-23:00.","icon-id":"i1da1c1cbac","label":"Burger Bull & Beer 11-23","openMin":660,"closeMin":1380,"category":"food"},"geometry":{"type":"Point","coordinates":[15.001844,52.3025496,0]}},{"type":"Feature","properties":{"name":"Neulich am See","description":"„Lately at the lake“ sounds like a secret code. But for what? All we know is that they serve amazing Berlin craft beer from tap. You better check it out!","icon-id":"id01a23aa65","label":"Neulich am See","category":"food"},"geometry":{"type":"Point","coordinates":[15.0030847,52.3005329,0]}},{"type":"Feature","properties":{"name":"Nice Fries\n","description":"Nice guys frying nice fries. They are so confusingly crunchy and lecker. Things get even better with their homemade sauces. Dip in!","icon-id":"i9425334d7e","label":"Nice Fries","category":"food"},"geometry":{"type":"Point","coordinates":[15.0029708,52.3010028,0]}},{"type":"Feature","properties":{"name":"Salat & Bowls","icon-id":"i2f20371137","label":"Salat & Bowls","category":"food"},"geometry":{"type":"Point","coordinates":[15.0022198,52.3025551,0]}},{"type":"Feature","properties":{"name":"Dünnes Brot","description":"So crunchy, so mampfi, these hand rolled sourdough flatbreads are both vegetarian and vegan. Freshly baked in oak wood fire!","icon-id":"icd7dd27b21","label":"Dünnes Brot","category":"food"},"geometry":{"type":"Point","coordinates":[15.0022319,52.3024617,0]}},{"type":"Feature","properties":{"name":"Käsespätzle","description":"Return of the Käsespätzle! Get your overdose of melted cheese, german noodles, gluten, and crispy fried onions. This insane snack<br>might give you more energy than you need. ","icon-id":"icd7dd27b21","label":"Käsespätzle","category":"food"},"geometry":{"type":"Point","coordinates":[15.001406,52.3033774,0]}},{"type":"Feature","properties":{"name":"Eispalast","description":"Ice Ice Baby! Ice Ice Lady! Ice Ice Dandy! You got it: Ice Ice everyone!<br>Isn’t that cool?","icon-id":"i19fbb2fe0e","label":"Eispalast","category":"food"},"geometry":{"type":"Point","coordinates":[15.0010698,52.3025422,0]}},{"type":"Feature","properties":{"name":"Vegan Gyros","description":"Real gyros for real vegans. And everyone else! One bite of this taste bud pleaser and you will want to keep eating forever.","icon-id":"i88f1b42b0b","label":"Vegan Gyros","category":"food"},"geometry":{"type":"Point","coordinates":[15.0021716,52.3022292,0]}},{"type":"Feature","properties":{"name":"Mr Pink's Tent","description":"A cozy tent, funky lights, fresh energy balls and curated hot & iced teas. Aren’t these the perfect ingredients for a crazy little hideout?","icon-id":"ic103f98ee5","label":"Mr Pink's Tent","category":"food"},"geometry":{"type":"Point","coordinates":[15.0015254,52.3025772,0]}},{"type":"Feature","properties":{"name":"Heiße Scheibe -  Crepes & Galletes","description":"Techno is not enough for breakfast? Try a crepe! Savoury or sweet this hot stuff is served till the bitter (or sugary) end.","icon-id":"icd7dd27b21","label":"Heiße Scheibe - Crepes & Galletes","category":"food"},"geometry":{"type":"Point","coordinates":[15.0015234,52.3026494,0]}},{"type":"Feature","properties":{"name":"Soft & Bier Bar","icon-id":"i81c87f6c6f","label":"Soft & Bier Bar","category":"food"},"geometry":{"type":"Point","coordinates":[15.0032333,52.3009342,0]}},{"type":"Feature","properties":{"name":"Donut Pączki","description":"Pączki have been enjoyed in Poland since the Middle Ages. So it’s about time that you get yours! These fluffy dough balls are perfectly deep fried and surprise with a sweet filling.","icon-id":"if6cf4e3444","label":"Donut Pączki","category":"food"},"geometry":{"type":"Point","coordinates":[15.0011278,52.3024025,0]}},{"type":"Feature","properties":{"name":"Absinth Bar","description":"The green fairy has arrived. Discover absinthe, unique rituals and herbal flavours in a tiny corner made for curious sips and wild stories.","icon-id":"i81c87f6c6f","label":"Absinth Bar","category":"food"},"geometry":{"type":"Point","coordinates":[15.0025753,52.3016197,0]}},{"type":"Feature","properties":{"name":"Coffee & Bubbles","icon-id":"ic927161124","label":"Coffee & Bubbles","category":"food"},"geometry":{"type":"Point","coordinates":[14.9986018,52.3015876,0]}},{"type":"Feature","properties":{"name":"Poached Eggs","icon-id":"i6f652329f0","label":"Poached Eggs","category":"food"},"geometry":{"type":"Point","coordinates":[15.0017624,52.3029783,0]}},{"type":"Feature","properties":{"name":"Artisanal Pies ","icon-id":"icd7dd27b21","label":"Artisanal Pies","category":"food"},"geometry":{"type":"Point","coordinates":[15.0018011,52.3028621,0]}},{"type":"Feature","properties":{"name":"Weisswurst Himmel","description":"O‘Ravet is! Zuzzel away your morning with a traditional bavarian – or vegan – sausage. Served with sweet mustard, freshly baked pretzel, and wheat beer. ","icon-id":"i8a1955e1e9","label":"Weisswurst Himmel","category":"food"},"geometry":{"type":"Point","coordinates":[15.0013037,52.3035222,0]}},{"type":"Feature","properties":{"name":"Cat Cabaret - Café Mauzie","description":"The Mauzies love you. A perfect coffee, handmade muffins or chia pudding appear right when you need them most. Open 7:00 – 19:00. Mauz Mauz.","icon-id":"ia3c5586b0e","label":"Cat Cabaret - Café Mauzie","category":"food"},"geometry":{"type":"Point","coordinates":[15.002219,52.3027917,0]}},{"type":"Feature","properties":{"name":"Fassbier Bar - BAR'REL","description":"Tap into our giant beer barrel and grab a pint of fresh Polish beer. Even better with a drinking buddy. Or ten. Cheers, thirsty friends!","icon-id":"id01a23aa65","label":"Fassbier Bar - BAR'REL","category":"food"},"geometry":{"type":"Point","coordinates":[15.0022095,52.3027473,0]}},{"type":"Feature","properties":{"name":"Matcha & Paninis","icon-id":"icd7dd27b21","label":"Matcha & Paninis","category":"food"},"geometry":{"type":"Point","coordinates":[15.0021989,52.3026966,0]}},{"type":"Feature","properties":{"name":"Pasta Pasta","description":"Bella Wow! Look at that, real spaghetti handmade right in front of you – just for you. Pick your favorite pasta and fuel up with that<br>magical carb-energy. Delizioso!","icon-id":"icd7dd27b21","label":"Pasta Pasta","category":"food"},"geometry":{"type":"Point","coordinates":[15.0011058,52.3024483,0]}},{"type":"Feature","properties":{"name":"Tacos","icon-id":"i1699d3d76e","label":"Tacos","category":"food"},"geometry":{"type":"Point","coordinates":[15.0021626,52.3022898,0]}},{"type":"Feature","properties":{"name":"Sechuan Noodles","description":"Anxin and Anton bring you their infamous handmade Dan Dan noodles. Tangy and spicy like straight from Sechuan. Add some chili oil that extra kick. Bam.","icon-id":"i2f20371137","label":"Sechuan Noodles","category":"food"},"geometry":{"type":"Point","coordinates":[15.0021679,52.3021619,0]}},{"type":"Feature","properties":{"name":"Catuma Bar","description":"Tropical aromas from the Amazon jungle. Katuma blends wine, Cachaça, rum and plant extracts like guarana. 100% natural, wild and unique.","icon-id":"i806d55fd60","label":"Catuma Bar","category":"food"},"geometry":{"type":"Point","coordinates":[15.0008127,52.3022805,0]}},{"type":"Feature","properties":{"name":"Langos","description":"This choice is simple: classic cheesy or vegan cheesy? <br>The Langos community welcomes you with a smile and your desired snack. Then you can be creative with the toppings.","icon-id":"icd7dd27b21","label":"Langos","category":"food"},"geometry":{"type":"Point","coordinates":[15.0026008,52.3011067,0]}},{"type":"Feature","properties":{"name":"Chinese Crepe & Wok","icon-id":"icd7dd27b21","label":"Chinese Crepe & Wok","category":"food"},"geometry":{"type":"Point","coordinates":[15.0027268,52.3010542,0]}},{"type":"Feature","properties":{"name":"More Tacos","icon-id":"i1699d3d76e","label":"More Tacos","category":"food"},"geometry":{"type":"Point","coordinates":[15.0029012,52.3005572,0]}},{"type":"Feature","properties":{"name":"Bredouillie Bar","icon-id":"id416569a56","label":"Bredouillie Bar","category":"food"},"geometry":{"type":"Point","coordinates":[15.0031345,52.3004752,0]}},{"type":"Feature","properties":{"name":"Marksman - 100% Herbal Bar","description":"Just a hole in the wall, but so much more! Come here to get the most amazing non-schnaps Schnaps which is no schnapps.<br>100% handcrafted and herbal, 0% alcohol.","icon-id":"i81c87f6c6f","label":"Marksman - 100% Herbal Bar","category":"food"},"geometry":{"type":"Point","coordinates":[15.0029682,52.3005064,0]}},{"type":"Feature","properties":{"name":"Sauna Bar","description":"Mix a little magic into your day. Discover sparkling botanicals, citrus infusions and earthy elixirs made to awaken your senses and lift your spirit.","icon-id":"i81c87f6c6f","label":"Sauna Bar","category":"food"},"geometry":{"type":"Point","coordinates":[14.9969882,52.3054636,0]}},{"type":"Feature","properties":{"name":"New Tyme Tonics & Elixirs Bar","description":"Smoke meets bloom. Natural wines, smoky mezcal and tea cocktails for slow sips, wild nights and curious minds.","icon-id":"i81c87f6c6f","label":"New Tyme Tonics & Elixirs Bar","category":"food"},"geometry":{"type":"Point","coordinates":[14.9977687,52.3052735,0]}},{"type":"Feature","properties":{"name":"Brunch & Munch 24/7","icon-id":"icd7dd27b21","label":"Brunch & Munch 24/7","category":"food"},"geometry":{"type":"Point","coordinates":[14.9978089,52.3052046,0]}},{"type":"Feature","properties":{"name":"Shakes-Cakes-Coffee","icon-id":"icd7dd27b21","label":"Shakes-Cakes-Coffee","category":"food"},"geometry":{"type":"Point","coordinates":[14.9978545,52.3051341,0]}},{"type":"Feature","properties":{"name":"Natural Wine & Cocktails","icon-id":"i81c87f6c6f","label":"Natural Wine & Cocktails","category":"food"},"geometry":{"type":"Point","coordinates":[14.9978921,52.3050586,0]}},{"type":"Feature","properties":{"name":"Flamed Salmon","icon-id":"i6accf90cb9","label":"Flamed Salmon","category":"food"},"geometry":{"type":"Point","coordinates":[15.0007737,52.3031109,0]}},{"type":"Feature","properties":{"name":"Marketplace","icon-id":"i4bd184dea0","label":"Marketplace"},"geometry":{"type":"Point","coordinates":[15.0008097,52.3028002,0]}},{"type":"Feature","properties":{"name":"Peruvian Cuisine","icon-id":"icd7dd27b21","label":"Peruvian Cuisine","category":"food"},"geometry":{"type":"Point","coordinates":[15.0018546,52.3024983,0]}},{"type":"Feature","properties":{"name":"Mutlu Cocktail Bar","description":"Cocktail magic happens here :)","icon-id":"i81c87f6c6f","label":"Mutlu Cocktail Bar","category":"food"},"geometry":{"type":"Point","coordinates":[15.004102,52.3022592,0]}},{"type":"Feature","properties":{"name":"Botanicals & Mushrooms","icon-id":"i88f1b42b0b","label":"Botanicals & Mushrooms","category":"food"},"geometry":{"type":"Point","coordinates":[15.004849,52.3000974,0]}},{"type":"Feature","properties":{"name":"Kiosk","icon-id":"i8b866b6425","label":"Kiosk","category":"food"},"geometry":{"type":"Point","coordinates":[15.0047619,52.3001105,0]}},{"type":"Feature","properties":{"name":"Coconuts","icon-id":"i806d55fd60","label":"Coconuts","category":"food"},"geometry":{"type":"Point","coordinates":[15.0049389,52.300063,0]}},{"type":"Feature","properties":{"name":"Cocktail Bar","icon-id":"i81c87f6c6f","label":"Cocktail Bar","category":"food"},"geometry":{"type":"Point","coordinates":[15.00506,52.2998933,0]}},{"type":"Feature","properties":{"name":"Vermouth Bar","description":"Vermouth is the answer. We just don’t know the question. Come for the herbs, stay for the flavours.","icon-id":"i81c87f6c6f","label":"Vermouth Bar","category":"food"},"geometry":{"type":"Point","coordinates":[15.0024781,52.3015465,0]}},{"type":"Feature","properties":{"name":"B4","stroke":"#f9a825","stroke-opacity":1,"stroke-width":1.2,"fill":"#f9a825","fill-opacity":0.30196078431372547,"label":"B4"},"geometry":{"type":"Polygon","coordinates":[[[15.0001275,52.303956,0],[15.0003099,52.3035279,0],[15.0012513,52.3036706,0],[15.0001275,52.303956,0]]]}},{"type":"Feature","properties":{"name":"Water\n","icon-id":"i553e53a1ec","label":"Water","category":"water"},"geometry":{"type":"Point","coordinates":[15.000073,52.3037414,0]}},{"type":"Feature","properties":{"name":"Flinta","icon-id":"genderFlinta","label":"Flinta","category":"wc"},"geometry":{"type":"Point","coordinates":[15.0014156,52.3017936,0]}},{"type":"Feature","properties":{"icon-id":"i99345cbd7b","category":"wc"},"geometry":{"type":"Point","coordinates":[14.9978204,52.304741,0]}},{"type":"Feature","properties":{"name":"WC","icon-id":"i99345cbd7b","label":"WC","category":"wc"},"geometry":{"type":"Point","coordinates":[14.9998525,52.3018212,0]}},{"type":"Feature","properties":{"name":"WC","icon-id":"i99345cbd7b","label":"WC","category":"wc"},"geometry":{"type":"Point","coordinates":[15.0012804,52.3017943,0]}},{"type":"Feature","properties":{"icon-id":"i553e53a1ec","category":"water"},"geometry":{"type":"Point","coordinates":[15.0032101,52.3020548,0]}},{"type":"Feature","properties":{"icon-id":"i553e53a1ec","category":"water"},"geometry":{"type":"Point","coordinates":[15.0020914,52.3019931,0]}},{"type":"Feature","properties":{"icon-id":"i99345cbd7b","category":"wc"},"geometry":{"type":"Point","coordinates":[15.0027726,52.3019899,0]}},{"type":"Feature","properties":{"name":"Infopoint","icon-id":"id36d15da10","label":"Infopoint"},"geometry":{"type":"Point","coordinates":[15.0008257,52.302687,0]}},{"type":"Feature","properties":{"icon-id":"i99345cbd7b","category":"wc"},"geometry":{"type":"Point","coordinates":[14.999698,52.3042966,0]}},{"type":"Feature","properties":{"name":"Urinal","icon-id":"genderMale","label":"Urinal","category":"wc"},"geometry":{"type":"Point","coordinates":[15.0009673,52.3038782,0]}},{"type":"Feature","properties":{"name":"Bassliner Stop\n","icon-id":"if4a2990e18","label":"Bassliner Stop"},"geometry":{"type":"Point","coordinates":[14.9988397,52.3074074,0]}},{"type":"Feature","properties":{"name":"SZORRYS TopUp!\n","description":"Pro Tip: Don't wait in the line, download the Szorrys app to top up from your own phone!","icon-id":"ia7203a5d47","label":"SZORRYS TopUp!","category":"topup"},"geometry":{"type":"Point","coordinates":[15.0007345,52.3027657,0]}},{"type":"Feature","properties":{"name":"Showers","icon-id":"i7706a39b1f","label":"Showers"},"geometry":{"type":"Point","coordinates":[14.9996203,52.3041935,0]}},{"type":"Feature","properties":{"icon-id":"i99345cbd7b","category":"wc"},"geometry":{"type":"Point","coordinates":[14.9976334,52.3040538,0]}},{"type":"Feature","properties":{"name":"Showers","icon-id":"i7706a39b1f","label":"Showers"},"geometry":{"type":"Point","coordinates":[14.9979015,52.3047574,0]}},{"type":"Feature","properties":{"name":"Water","icon-id":"i553e53a1ec","label":"Water","category":"water"},"geometry":{"type":"Point","coordinates":[14.997776,52.3048363,0]}},{"type":"Feature","properties":{"icon-id":"i99345cbd7b","category":"wc"},"geometry":{"type":"Point","coordinates":[14.9985218,52.3075067,0]}},{"type":"Feature","properties":{"icon-id":"i99345cbd7b","category":"wc"},"geometry":{"type":"Point","coordinates":[14.9969327,52.3049222,0]}},{"type":"Feature","properties":{"icon-id":"i99345cbd7b","category":"wc"},"geometry":{"type":"Point","coordinates":[14.999531,52.3066744,0]}},{"type":"Feature","properties":{"icon-id":"i99345cbd7b","category":"wc"},"geometry":{"type":"Point","coordinates":[14.9960672,52.3079427,0]}},{"type":"Feature","properties":{"icon-id":"i99345cbd7b","category":"wc"},"geometry":{"type":"Point","coordinates":[14.9966734,52.3074573,0]}},{"type":"Feature","properties":{"icon-id":"i99345cbd7b","category":"wc"},"geometry":{"type":"Point","coordinates":[14.9970989,52.3062502,0]}},{"type":"Feature","properties":{"name":"Shower","icon-id":"i7706a39b1f","label":"Shower"},"geometry":{"type":"Point","coordinates":[14.9982872,52.3074993,0]}},{"type":"Feature","properties":{"name":"First Aid\n","icon-id":"i621b53af76","label":"First Aid"},"geometry":{"type":"Point","coordinates":[15.00035,52.3028932,0]}},{"type":"Feature","properties":{"name":"Flinta","icon-id":"genderFlinta","label":"Flinta","category":"wc"},"geometry":{"type":"Point","coordinates":[15.0038834,52.3006715,0]}},{"type":"Feature","properties":{"name":"Sauna","icon-id":"i6cedcd9a7b","label":"Sauna"},"geometry":{"type":"Point","coordinates":[14.99679,52.3058498,0]}},{"type":"Feature","properties":{"name":"Unicorns","icon-id":"id977d6f9d8","label":"Unicorns"},"geometry":{"type":"Point","coordinates":[14.9996238,52.3062057,0]}},{"type":"Feature","properties":{"name":"Awareness Team","icon-id":"i28cb842b68","label":"Awareness Team"},"geometry":{"type":"Point","coordinates":[15.0002615,52.3030654,0]}},{"type":"Feature","properties":{"icon-id":"i99345cbd7b","category":"wc"},"geometry":{"type":"Point","coordinates":[14.9967362,52.3057612,0]}},{"type":"Feature","properties":{"icon-id":"i99345cbd7b","category":"wc"},"geometry":{"type":"Point","coordinates":[14.9983403,52.3035397,0]}},{"type":"Feature","properties":{"name":"Fire Fighters\n","icon-id":"i52e90c3328","label":"Fire Fighters"},"geometry":{"type":"Point","coordinates":[15.0012559,52.3045003,0]}},{"type":"Feature","properties":{"name":"Eclipse eV\n","description":"Eclipse is an association of fellow party goers, music enthusiasts, friends, peers and those inclined to help where help is needed to ensure our beloved festival remains an open<br>and safe space for everybody to live out their dreams of freedom in (nearly) all ways imaginable.<br><br>Waiting in a dim, sleepy “cave” to retreat to, in case the festival lignts and sounds overwhelm your senses for a moment or two, they invite you to visit them in their beautiful Moroccan wedding tent right across from the information point sitting between the Wiese floor and the<br>main food-court.<br><br>Fitted with calming décor and mattresses it’s a place to calm down and recharge with a soothing hot chai tea, some nuts and fruit or just a chat with some friendly faces outside all the party frenzy.","icon-id":"i816bd807cd","label":"Eclipse eV"},"geometry":{"type":"Point","coordinates":[15.0004359,52.3027439,0]}},{"type":"Feature","properties":{"name":"Water","icon-id":"i553e53a1ec","label":"Water","category":"water"},"geometry":{"type":"Point","coordinates":[15.0005458,52.3026078,0]}},{"type":"Feature","properties":{"name":"Ambulance","icon-id":"i644a60bd91","label":"Ambulance"},"geometry":{"type":"Point","coordinates":[15.0008911,52.3045068,0]}},{"type":"Feature","properties":{"name":"Urinals","icon-id":"genderMale","label":"Urinals","category":"wc"},"geometry":{"type":"Point","coordinates":[15.0041491,52.3027893,0]}},{"type":"Feature","properties":{"icon-id":"i99345cbd7b","category":"wc"},"geometry":{"type":"Point","coordinates":[15.001891,52.3048219,0]}},{"type":"Feature","properties":{"icon-id":"i99345cbd7b","category":"wc"},"geometry":{"type":"Point","coordinates":[15.0028697,52.3029004,0]}},{"type":"Feature","properties":{"name":"WC","icon-id":"i99345cbd7b","label":"WC","category":"wc"},"geometry":{"type":"Point","coordinates":[15.0046174,52.3018911,0]}},{"type":"Feature","properties":{"name":"Trash","icon-id":"i788580997e","label":"Trash"},"geometry":{"type":"Point","coordinates":[15.0043259,52.3027928,0]}},{"type":"Feature","properties":{"name":"WC","icon-id":"i99345cbd7b","label":"WC","category":"wc"},"geometry":{"type":"Point","coordinates":[15.0038941,52.3001138,0]}},{"type":"Feature","properties":{"name":"Water","icon-id":"i553e53a1ec","label":"Water","category":"water"},"geometry":{"type":"Point","coordinates":[15.0046727,52.3001309,0]}},{"type":"Feature","properties":{"name":"WC","icon-id":"i99345cbd7b","label":"WC","category":"wc"},"geometry":{"type":"Point","coordinates":[15.0045091,52.3001719,0]}},{"type":"Feature","properties":{"name":"Bassliner Stop\n","icon-id":"if4a2990e18","label":"Bassliner Stop"},"geometry":{"type":"Point","coordinates":[14.9861707,52.3097126,0]}},{"type":"Feature","properties":{"name":"Village Store\n","icon-id":"iaf3713d4cc","label":"Village Store"},"geometry":{"type":"Point","coordinates":[14.9914608,52.3095026,0]}},{"type":"Feature","properties":{"name":"Village Store\n","icon-id":"iaf3713d4cc","label":"Village Store"},"geometry":{"type":"Point","coordinates":[14.9901404,52.3097388,0]}},{"type":"Feature","properties":{"name":"Parking","icon-id":"i9ae53a2651","label":"Parking"},"geometry":{"type":"Point","coordinates":[14.9816653,52.3119492,0]}},{"type":"Feature","properties":{"name":"WC","icon-id":"i99345cbd7b","label":"WC","category":"wc"},"geometry":{"type":"Point","coordinates":[14.9870083,52.3099684,0]}},{"type":"Feature","properties":{"name":"Chill Space\n","icon-id":"i28cb842b68","label":"Chill Space"},"geometry":{"type":"Point","coordinates":[14.9973857,52.3068596,0]}},{"type":"Feature","properties":{"name":"Water","icon-id":"i553e53a1ec","label":"Water","category":"water"},"geometry":{"type":"Point","coordinates":[15.0020712,52.3037585,0]}},{"type":"Feature","properties":{"stroke":"#0288d1","stroke-opacity":1,"stroke-width":1.2},"geometry":{"type":"LineString","coordinates":[[15.0027458,52.3033467,0],[15.0025688,52.3030417,0]]}},{"type":"Feature","properties":{"name":"Lifeguards","icon-id":"id42032a85a","label":"Lifeguards"},"geometry":{"type":"Point","coordinates":[15.0044063,52.299525,0]}},{"type":"Feature","properties":{"stroke":"#000000","stroke-opacity":1,"stroke-width":1.2},"geometry":{"type":"LineString","coordinates":[[15.0002044,52.3060483,0],[15.000437,52.3058185,0],[15.0005121,52.3054676,0],[15.0003887,52.3052839,0],[15.0001634,52.3051723,0],[15.0004692,52.3047951,0]]}},{"type":"Feature","properties":{"icon-id":"i99345cbd7b","category":"wc"},"geometry":{"type":"Point","coordinates":[15.0006462,52.3054741,0]}},{"type":"Feature","properties":{"icon-id":"i7706a39b1f"},"geometry":{"type":"Point","coordinates":[15.0008232,52.3054742,0]}},{"type":"Feature","properties":{"name":"Merch","icon-id":"i5288948612","label":"Merch"},"geometry":{"type":"Point","coordinates":[15.0011007,52.3027287,0]}},{"type":"Feature","properties":{"name":"Water bar","icon-id":"i553e53a1ec","label":"Water bar","category":"water"},"geometry":{"type":"Point","coordinates":[15.0007363,52.3023341,0]}},{"type":"Feature","properties":{"name":"Evacuation Point","icon-id":"ica9d6556ae","label":"Evacuation Point"},"geometry":{"type":"Point","coordinates":[15.0010514,52.304542,0]}},{"type":"Feature","properties":{"name":"Parking","stroke":"#0288d1","stroke-opacity":1,"stroke-width":1.2,"fill":"#0288d1","fill-opacity":0.30196078431372547,"label":"Parking"},"geometry":{"type":"Polygon","coordinates":[[[14.9817387,52.3128178,0],[14.9812238,52.3115486,0],[14.9817494,52.3114961,0],[14.9822376,52.3125161,0],[14.9817387,52.3128178,0]]]}},{"type":"Feature","properties":{"name":"Parking","icon-id":"i9ae53a2651","label":"Parking"},"geometry":{"type":"Point","coordinates":[14.9810253,52.3120658,0]}},{"type":"Feature","properties":{"name":"Check in - Village Gate","icon-id":"i803577715b","label":"Check in - Village Gate"},"geometry":{"type":"Point","coordinates":[14.9814491,52.3122101,0]}},{"type":"Feature","properties":{"name":"WC","icon-id":"i99345cbd7b","label":"WC","category":"wc"},"geometry":{"type":"Point","coordinates":[14.9814866,52.3120527,0]}},{"type":"Feature","properties":{"name":"Parking","stroke":"#0288d1","stroke-opacity":1,"stroke-width":1.2,"fill":"#0288d1","fill-opacity":0.30196078431372547,"label":"Parking"},"geometry":{"type":"Polygon","coordinates":[[[14.9809617,52.3126361,0],[14.9803502,52.3112324,0],[14.9809617,52.3111537,0],[14.9816591,52.3128328,0],[14.9811924,52.3131477,0],[14.9809617,52.3126361,0]]]}},{"type":"Feature","properties":{"name":"Main Gate - Check in","icon-id":"i803577715b","label":"Main Gate - Check in"},"geometry":{"type":"Point","coordinates":[14.9992311,52.307142,0]}},{"type":"Feature","properties":{"icon-id":"i553e53a1ec","category":"water"},"geometry":{"type":"Point","coordinates":[15.0010533,52.304461,0]}},{"type":"Feature","properties":{"name":"Emergency Exit","icon-id":"i6adf16590e","label":"Emergency Exit"},"geometry":{"type":"Point","coordinates":[14.9994589,52.3067854,0]}},{"type":"Feature","properties":{"icon-id":"i553e53a1ec","category":"water"},"geometry":{"type":"Point","coordinates":[15.0002433,52.3041096,0]}},{"type":"Feature","properties":{"name":"Szunnys Top-up","icon-id":"ia7203a5d47","label":"Szunnys Top-up","category":"topup"},"geometry":{"type":"Point","coordinates":[15.0020424,52.3030217,0]}},{"type":"Feature","properties":{"name":"Rooftop Nest","icon-id":"i16fa65ad80","label":"Rooftop Nest"},"geometry":{"type":"Point","coordinates":[15.002308,52.3028692,0]}},{"type":"Feature","properties":{"icon-id":"i20445dd9fc"},"geometry":{"type":"Point","coordinates":[15.001147,52.3017917,0]}},{"type":"Feature","properties":{"name":"Art","description":"LAKESIDE INSTALLATIONS<br><br><br>Suspension Rope by Heiko Tubbesing<br><br>\"Suspension Rope\" A minimalist, interactive sound installation. The body becomes the instrument, the lake becomes the stage. A playful moment where acceleration and the release of letting go are translated into sound textures.<br><br><br><br>Promises by Cosme San<br><br>Cosme San: Author Cosme Fodor, Punani Collective<br>Creative Assistant: Annemoon Mater, Punani Collective<br>On site Creative Assistant : Drago Borić<br>Promises is an interactive sound installation. Make a promise to yourself and challenge the complexity of the truth.<br><br><br><br>Ice|Dry (Hielo|Seco) by Fabiana Gallegos (a.k.a. Texas) <br>Sound by Polett(2026)<br><br>Audiovisual installation | Ice sculptures<br>Ice • Stones • Whip • Projection • Hydrophone<br>Hielo|Seco is a land art installation that addresses the global water crisis and the irreversible loss of glaciers. Drawing from the over 300-year-old Qoyllur Rit’i pilgrimage—the only celebration throughout the Andes dedicated to glacial ice as a sacred mountain—the work inhabits a space where ritual, cosmology, and ecology converge, understanding ice as a water reserve, a sacred body, and a living memory.","icon-id":"iba2ca8c10a","label":"Art"},"geometry":{"type":"Point","coordinates":[15.0012242,52.3009348,0]}},{"type":"Feature","properties":{"name":"Emergency Exit","icon-id":"i6adf16590e","label":"Emergency Exit"},"geometry":{"type":"Point","coordinates":[15.0055132,52.2993478,0]}},{"type":"Feature","properties":{"icon-id":"i553e53a1ec","category":"water"},"geometry":{"type":"Point","coordinates":[15.0021407,52.3012707,0]}},{"type":"Feature","properties":{"icon-id":"i553e53a1ec","category":"water"},"geometry":{"type":"Point","coordinates":[15.0037385,52.3013388,0]}},{"type":"Feature","properties":{"name":"Art","description":"LAKESIDE INSTALLATIONS<br><br><br>Suspension Rope by Heiko Tubbesing<br><br>\"Suspension Rope\" A minimalist, interactive sound installation. The body becomes the instrument, the lake becomes the stage. A playful moment where acceleration and the release of letting go are translated into sound textures.<br><br><br><br>Promises by Cosme San<br><br>Cosme San: Author Cosme Fodor, Punani Collective<br>Creative Assistant: Annemoon Mater, Punani Collective<br>On site Creative Assistant : Drago Borić<br>Promises is an interactive sound installation. Make a promise to yourself and challenge the complexity of the truth.<br><br><br><br>Ice|Dry (Hielo|Seco) by Fabiana Gallegos (a.k.a. Texas) <br>Sound by Polett(2026)<br><br>Audiovisual installation | Ice sculptures<br>Ice • Stones • Whip • Projection • Hydrophone<br>Hielo|Seco is a land art installation that addresses the global water crisis and the irreversible loss of glaciers. Drawing from the over 300-year-old Qoyllur Rit’i pilgrimage—the only celebration throughout the Andes dedicated to glacial ice as a sacred mountain—the work inhabits a space where ritual, cosmology, and ecology converge, understanding ice as a water reserve, a sacred body, and a living memory.","icon-id":"iba2ca8c10a","label":"Art"},"geometry":{"type":"Point","coordinates":[15.0032994,52.2998956,0]}},{"type":"Feature","properties":{"icon-id":"i553e53a1ec","category":"water"},"geometry":{"type":"Point","coordinates":[15.0032561,52.3002453,0]}},{"type":"Feature","properties":{"name":"Szorrys Top-up","icon-id":"ia7203a5d47","label":"Szorrys Top-up","category":"topup"},"geometry":{"type":"Point","coordinates":[15.0033137,52.3004799,0]}},{"type":"Feature","properties":{"icon-id":"i20445dd9fc"},"geometry":{"type":"Point","coordinates":[15.0037601,52.3007457,0]}},{"type":"Feature","properties":{"name":"Art","icon-id":"iba2ca8c10a","label":"Art"},"geometry":{"type":"Point","coordinates":[15.0026948,52.3025899,0]}},{"type":"Feature","properties":{"name":"B2","stroke":"#f9a825","stroke-opacity":1,"stroke-width":1.2,"fill":"#f9a825","fill-opacity":0.30196078431372547,"label":"B2"},"geometry":{"type":"Polygon","coordinates":[[[14.9999459,52.3043528,0],[15.0000961,52.3040083,0],[15.000619,52.3038771,0],[15.0007988,52.304192,0],[15.0004716,52.3045856,0],[14.9999459,52.3043528,0]]]}},{"type":"Feature","properties":{"name":"B3","stroke":"#f9a825","stroke-opacity":1,"stroke-width":1.2,"fill":"#f9a825","fill-opacity":0.30196078431372547,"label":"B3"},"geometry":{"type":"Polygon","coordinates":[[[15.0008328,52.3041539,0],[15.0006423,52.3038718,0],[15.0009615,52.3038144,0],[15.001109,52.3038292,0],[15.0008328,52.3041539,0]]]}},{"type":"Feature","properties":{"name":"C3","stroke":"#f9a825","stroke-opacity":1,"stroke-width":1.2,"fill":"#f9a825","fill-opacity":0.30196078431372547,"label":"C3"},"geometry":{"type":"Polygon","coordinates":[[[15.0020237,52.3042854,0],[15.0016455,52.3036442,0],[15.002013,52.303549,0],[15.0023965,52.3041772,0],[15.0020237,52.3042854,0]]]}},{"type":"Feature","properties":{"name":"C4","stroke":"#f9a825","stroke-opacity":1,"stroke-width":1.2,"fill":"#f9a825","fill-opacity":0.30196078431372547,"label":"C4"},"geometry":{"type":"Polygon","coordinates":[[[15.0024372,52.3041607,0],[15.0020617,52.3035374,0],[15.0027912,52.3033537,0],[15.0031802,52.3039376,0],[15.0024372,52.3041607,0]]]}},{"type":"Feature","properties":{"icon-id":"i15cc644b5f"},"geometry":{"type":"Point","coordinates":[15.0015086,52.3038619,0]}},{"type":"Feature","properties":{"icon-id":"i15cc644b5f"},"geometry":{"type":"Point","coordinates":[15.0018814,52.3037471,0]}},{"type":"Feature","properties":{"icon-id":"i15cc644b5f"},"geometry":{"type":"Point","coordinates":[15.0024249,52.3036394,0]}},{"type":"Feature","properties":{"name":"C5","stroke":"#f9a825","stroke-opacity":1,"stroke-width":1.2,"fill":"#f9a825","fill-opacity":0.30196078431372547,"label":"C5"},"geometry":{"type":"Polygon","coordinates":[[[15.0032519,52.3039204,0],[15.002855,52.3033447,0],[15.0033861,52.303202,0],[15.0037508,52.3037957,0],[15.0032519,52.3039204,0]]]}},{"type":"Feature","properties":{"icon-id":"i7706a39b1f"},"geometry":{"type":"Point","coordinates":[14.9984758,52.303539,0]}},{"type":"Feature","properties":{"icon-id":"i19ff75cb77"},"geometry":{"type":"Point","coordinates":[14.9996627,52.3030924,0]}},{"type":"Feature","properties":{"icon-id":"i15cc644b5f"},"geometry":{"type":"Point","coordinates":[14.9998612,52.3030957,0]}},{"type":"Feature","properties":{"icon-id":"i20445dd9fc"},"geometry":{"type":"Point","coordinates":[15.0027387,52.3028986,0]}},{"type":"Feature","properties":{"name":"Eclipse e.V.","description":"Eclipse is an association of fellow party goers, music enthusiasts, friends, peers and those inclined to help where help is needed to ensure our beloved festival remains an open<br>and safe space for everybody to live out their dreams of freedom in (nearly) all ways imaginable.<br><br>Waiting in a dim, sleepy “cave” to retreat to, in case the festival lignts and sounds overwhelm your senses for a moment or two, they invite you to visit them in their beautiful Moroccan wedding tent right across from the information point sitting between the Wiese floor and the<br>main food-court.<br><br>Fitted with calming décor and mattresses it’s a place to calm down and recharge with a soothing hot chai tea, some nuts and fruit or just a chat with some friendly faces outside all the party frenzy.","icon-id":"i816bd807cd","label":"Eclipse e.V."},"geometry":{"type":"Point","coordinates":[15.0043223,52.3001966,0]}},{"type":"Feature","properties":{"name":"Flinta","icon-id":"genderFlinta","label":"Flinta","category":"wc"},"geometry":{"type":"Point","coordinates":[15.0053892,52.3004655,0]}},{"type":"Feature","properties":{"name":"Flinta","icon-id":"genderFlinta","label":"Flinta","category":"wc"},"geometry":{"type":"Point","coordinates":[14.9995505,52.3042956,0]}},{"type":"Feature","properties":{"icon-id":"i99345cbd7b","category":"wc"},"geometry":{"type":"Point","coordinates":[15.0038461,52.3005493,0]}},{"type":"Feature","properties":{"name":"Simba Camp entry","icon-id":"i974ba8477c","label":"Simba Camp entry"},"geometry":{"type":"Point","coordinates":[14.9962489,52.3100067,0]}},{"type":"Feature","properties":{"name":"Simba Camp","stroke":"#f9a825","stroke-opacity":1,"stroke-width":1.2,"fill":"#f9a825","fill-opacity":0.30196078431372547,"label":"Simba Camp"},"geometry":{"type":"Polygon","coordinates":[[[14.9956374,52.3103347,0],[14.9960022,52.3101313,0],[14.9959915,52.3099542,0],[14.9967586,52.3100953,0],[14.9966889,52.3102494,0],[14.9962811,52.3103412,0],[14.9961524,52.3103872,0],[14.9956374,52.3103347,0]]]}},{"type":"Feature","properties":{"name":"Waffles","icon-id":"icd7dd27b21","label":"Waffles","category":"food"},"geometry":{"type":"Point","coordinates":[15.0022282,52.3029477,0]}},{"type":"Feature","properties":{"name":"Artist Parking","stroke":"#0288d1","stroke-opacity":1,"stroke-width":1.2,"fill":"#0288d1","fill-opacity":0.30196078431372547,"label":"Artist Parking"},"geometry":{"type":"Polygon","coordinates":[[[14.9812104,52.3115092,0],[14.9810602,52.3111288,0],[14.9815645,52.3110566,0],[14.9817469,52.3114535,0],[14.9812104,52.3115092,0]]]}},{"type":"Feature","properties":{"stroke":"#7cb342","stroke-opacity":1,"stroke-width":1.2},"geometry":{"type":"LineString","coordinates":[[15.0030928,52.3010037,0],[15.0021051,52.3013557,0],[15.0015449,52.3018933,0]]}},{"type":"Feature","properties":{"name":"Line 100","stroke":"#7cb342","stroke-opacity":1,"stroke-width":1.2,"label":"Line 100"},"geometry":{"type":"LineString","coordinates":[[15.0024542,52.3042356,0],[15.0020263,52.3035301,0]]}},{"type":"Feature","properties":{"name":"Road","stroke":"#7cb342","stroke-opacity":1,"stroke-width":1.2,"label":"Road"},"geometry":{"type":"LineString","coordinates":[[15.0013088,52.3037082,0],[15.0011587,52.3039263,0],[15.0021591,52.3054844,0],[15.002776,52.3053531,0],[15.0036558,52.3044888,0],[15.0045034,52.3036311,0]]}},{"type":"Feature","properties":{"name":"Road","stroke":"#7cb342","stroke-opacity":1,"stroke-width":1.2,"label":"Road"},"geometry":{"type":"LineString","coordinates":[[15.0030928,52.3010037,0],[15.0032671,52.3009777,0]]}},{"type":"Feature","properties":{"stroke":"#7cb342","stroke-opacity":1,"stroke-width":1.2},"geometry":{"type":"LineString","coordinates":[[14.9992506,52.3032062,0],[14.9991315,52.3033889,0],[14.9996627,52.3040974,0],[15.0000033,52.3040121,0],[15.0003654,52.30332,0]]}},{"type":"Feature","properties":{"stroke":"#7cb342","stroke-opacity":1,"stroke-width":1.2},"geometry":{"type":"LineString","coordinates":[[15.0037363,52.3044282,0],[15.00348,52.3039155,0]]}},{"type":"Feature","properties":{"stroke":"#7cb342","stroke-opacity":1,"stroke-width":1.2},"geometry":{"type":"LineString","coordinates":[[15.0007406,52.3025143,0],[15.0003919,52.3025012,0],[15.0003141,52.3025045,0],[15.0000646,52.3023503,0],[14.9998876,52.3021797,0],[14.9996301,52.3020387,0],[14.9994531,52.3020452,0],[14.9993351,52.3021732,0],[14.9991741,52.302265,0],[14.9987879,52.3023438,0],[14.9983319,52.3023962,0],[14.9983963,52.3021994,0],[14.9985411,52.3019173,0],[14.9988304,52.3016853,0],[14.9992918,52.3014425,0],[14.9997424,52.3012785,0],[15.000252,52.3012621,0],[15.0007992,52.3009931,0],[15.0020618,52.3005971,0],[15.002491,52.3004856,0],[15.0027538,52.3003544,0],[15.0028611,52.300233,0],[15.0032903,52.3001182,0],[15.0039859,52.3000788,0],[15.0043239,52.3000099,0],[15.004635,52.2998951,0],[15.0050802,52.2997081,0],[15.0055041,52.2993997,0],[15.0060834,52.2997573,0],[15.006078,52.3001182,0],[15.0058205,52.3003675,0],[15.0052358,52.3004364,0],[15.0032671,52.3009777,0]]}},{"type":"Feature","properties":{"stroke":"#7cb342","stroke-opacity":1,"stroke-width":1.2},"geometry":{"type":"LineString","coordinates":[[15.0003141,52.3025045,0],[14.9999829,52.3026983,0],[14.9996584,52.3029476,0],[14.9992506,52.3032062,0],[15.0003181,52.3033308,0],[15.0007406,52.3025143,0]]}},{"type":"Feature","properties":{"name":"Road","stroke":"#7cb342","stroke-opacity":1,"stroke-width":1.2,"label":"Road"},"geometry":{"type":"LineString","coordinates":[[14.996125,52.307514,0],[14.9965535,52.3073289,0],[14.9970165,52.3070892,0],[14.9972032,52.3069006,0],[14.9974745,52.306808,0],[14.9975787,52.3064545,0],[14.9976002,52.3063332,0],[14.9980347,52.3061364,0],[14.9984102,52.3059068,0],[14.9994241,52.3060511,0]]}},{"type":"Feature","properties":{"stroke":"#7cb342","stroke-opacity":1,"stroke-width":1.2},"geometry":{"type":"LineString","coordinates":[[14.9979257,52.3045383,0],[15.00454,52.3029048,0]]}},{"type":"Feature","properties":{"name":"Road","stroke":"#7cb342","stroke-opacity":1,"stroke-width":1.2,"label":"Road"},"geometry":{"type":"LineString","coordinates":[[14.9983319,52.3023962,0],[14.9981023,52.3026446,0],[14.9980285,52.3027996,0],[14.9979696,52.3030459,0],[14.9979924,52.3032296,0],[14.9980206,52.3036052,0],[14.9975753,52.3040086,0],[14.9970577,52.3046155,0],[14.9965588,52.3052272,0],[14.9964676,52.3054044,0],[14.9966607,52.305752,0],[14.9968914,52.306103,0],[14.9969715,52.3062677,0],[14.9970386,52.3063497,0],[14.9969849,52.3066186,0],[14.9969527,52.3068581,0],[14.9966845,52.3070516,0],[14.9964538,52.3072943,0],[14.9962205,52.3074009,0],[14.9959871,52.3076846,0],[14.9959415,52.3081947,0],[14.9962205,52.3080044,0],[14.9968535,52.3076666,0],[14.997229,52.307542,0],[14.9988544,52.3073452,0],[14.999187,52.3072336,0],[14.9995947,52.3068171,0],[14.9996323,52.3066531,0],[14.9995089,52.3061972,0],[14.9992762,52.3056945,0],[14.9994907,52.3050844,0]]}},{"type":"Feature","properties":{"stroke":"#7cb342","stroke-opacity":1,"stroke-width":1.2},"geometry":{"type":"LineString","coordinates":[[15.0020197,52.3043166,0],[15.001612,52.3036475,0]]}},{"type":"Feature","properties":{"name":"Line 148","stroke":"#7cb342","stroke-opacity":1,"stroke-width":1.2,"label":"Line 148"},"geometry":{"type":"LineString","coordinates":[[15.0027655,52.3005575,0],[15.0021406,52.3005772,0]]}},{"type":"Feature","properties":{"stroke":"#7cb342","stroke-opacity":1,"stroke-width":1.2},"geometry":{"type":"LineString","coordinates":[[15.0026204,52.3047168,0],[15.0037363,52.3044282,0]]}},{"type":"Feature","properties":{"stroke":"#7cb342","stroke-opacity":1,"stroke-width":1.2},"geometry":{"type":"LineString","coordinates":[[15.0015073,52.304461,0],[15.0045034,52.3036311,0]]}},{"type":"Feature","properties":{"stroke":"#7cb342","stroke-opacity":1,"stroke-width":1.2},"geometry":{"type":"LineString","coordinates":[[15.0041301,52.3005141,0],[15.0039048,52.3003697,0],[15.0033509,52.3003345,0]]}},{"type":"Feature","properties":{"name":"Line 167","stroke":"#7cb342","stroke-opacity":1,"stroke-width":1.2,"label":"Line 167"},"geometry":{"type":"LineString","coordinates":[[15.0007406,52.3025143,0],[15.0009441,52.3024936,0],[15.0015449,52.3018933,0],[15.0025319,52.3019261,0],[15.0035726,52.302054,0],[15.0041466,52.3022279,0],[15.0027465,52.3027297,0],[15.0024086,52.3028938,0],[15.002827,52.3029626,0]]}},{"type":"Feature","properties":{"stroke":"#7cb342","stroke-opacity":1,"stroke-width":1.2},"geometry":{"type":"LineString","coordinates":[[14.9995255,52.3062058,0],[15.000022,52.3062648,0],[15.0002044,52.3060483,0],[15.0021245,52.3055284,0],[15.0021591,52.3054844,0]]}},{"type":"Feature","properties":{"name":"Line 144","stroke":"#7cb342","stroke-opacity":1,"stroke-width":1.2,"label":"Line 144"},"geometry":{"type":"LineString","coordinates":[[15.0030928,52.3010037,0],[15.0027655,52.3005575,0],[15.0031089,52.3005149,0],[15.0033509,52.3003345,0]]}},{"type":"Feature","properties":{"stroke":"#7cb342","stroke-opacity":1,"stroke-width":1.2},"geometry":{"type":"LineString","coordinates":[[15.0037278,52.3008388,0],[15.0041999,52.3005206,0],[15.0043286,52.3002779,0],[15.004849,52.3000974,0],[15.0060667,52.2999269,0]]}},{"type":"Feature","properties":{"name":"Road","stroke":"#7cb342","stroke-opacity":1,"stroke-width":1.2,"label":"Road"},"geometry":{"type":"LineString","coordinates":[[15.0046122,52.3028824,0],[15.0049718,52.3021253,0],[15.0050469,52.3018104,0],[15.0051199,52.3016711,0],[15.0050824,52.3015235,0],[15.0052997,52.3013382,0],[15.0052788,52.3010167,0],[15.0058205,52.3003675,0]]}},{"type":"Feature","properties":{"stroke":"#7cb342","stroke-opacity":1,"stroke-width":1.2},"geometry":{"type":"LineString","coordinates":[[15.0034328,52.3009175,0],[15.0033899,52.3007076,0],[15.0034381,52.3004944,0],[15.003363,52.3003697,0],[15.0032903,52.3001182,0]]}},{"type":"Feature","properties":{"stroke":"#7cb342","stroke-opacity":1,"stroke-width":1.2},"geometry":{"type":"LineString","coordinates":[[15.0009119,52.3025198,0],[15.0011211,52.3026445,0],[15.0024032,52.3029233,0]]}},{"type":"Feature","properties":{"stroke":"#7cb342","stroke-opacity":1,"stroke-width":1.2},"geometry":{"type":"LineString","coordinates":[[15.0042975,52.3036713,0],[15.0039596,52.3030579,0]]}},{"type":"Feature","properties":{"name":"Crew 4","stroke":"#7cb342","stroke-opacity":1,"stroke-width":1.2,"fill":"#7cb342","fill-opacity":0.2980392156862745,"label":"Crew 4"},"geometry":{"type":"Polygon","coordinates":[[[15.0021719,52.3054535,0],[15.0015309,52.3044678,0],[15.0024133,52.3042317,0],[15.0026976,52.3046663,0],[15.0025662,52.3047007,0],[15.0028425,52.3052452,0],[15.002754,52.3053247,0],[15.0021719,52.3054535,0]]]}},{"type":"Feature","properties":{"name":"Buk Corner\n","description":"Nestled among birch and beech trees by the lake, this forest stage pulses with deep house, minimal, and hypnotic grooves. From underground legends to rising talents, the lineup promises immersive journeys and late-night magic. A place to dance, drift, and lose yourself in sound and nature.","icon-id":"ibc4555100b","label":"Buk Corner"},"geometry":{"type":"Point","coordinates":[15.0050053,52.2998652,0]}},{"type":"Feature","properties":{"name":"Lichtung","description":"Welcome to a sanctuary for connection, where community becomes a living, breathing field. A place to arrive softly and listen deeply. Between sound and silence, music unfolds as a shared language of presence. Steam rises in Banya rituals, opening the body, dissolving the edges. Tea is poured slowly, inviting conversation, stillness, and subtle connection. Touch, movement, and breath weave through spaces of care and exploration. Here, curiosity is your compass and playfulness your guide. From deep listening journeys to vibrant encounters, every moment holds potential. We gather not to escape, but to feel more—together. Come as you are, and discover what unfolds in between.","icon-id":"ibc4555100b","label":"Lichtung"},"geometry":{"type":"Point","coordinates":[14.9972117,52.3053207,0]}},{"type":"Feature","properties":{"name":"Wiese","description":"Check out the Wiese house music floor! It’s the perfect place to kick back and enjoy some smooth, soulful beats. The vibe is super chill and friendly, with great melodies and deep bass that’ll keep you grooving all night. This is the place to really immerse yourself in the warm, soulful sounds of House music, for good vibes and good times.","icon-id":"ibc4555100b","label":"Wiese"},"geometry":{"type":"Point","coordinates":[15.0004002,52.3021759,0]}},{"type":"Feature","properties":{"name":"Juicy Bar\n","description":"A pressing experiment. A hydration cult. An annual reunion. <br>Not exactly a bar, not exactly a dance floor, but a point of exchange: we give you our sugar, you give us your salt.<br>We are interested in the alchemy of the squeeze, what happens when the body and fruits are pressed under the same forces, blurring whatever boundary used to separate the pouring hand from the raised one.<br>We don't ask what you're made of, just that you join the beat with us. We squeeze, you get squeezed. <br>Only rule is: Nobody leaves dry.","icon-id":"ibc4555100b","label":"Juicy Bar"},"geometry":{"type":"Point","coordinates":[15.0017391,52.3021178,0]}},{"type":"Feature","properties":{"name":"Junkyard","description":"Every yin needs its yang, and the Junkyard swings the pendulum heavy. Heavy as the guitars shredding the grounds at night. Heavy as the bassy air creeping out of the shed. If you ask nicely, our residents will let you in on their long-honed workshop skills. Speaking of: All the spares you might need are in stock at our bars. Junkyard - a place for shenanigans, to really get lost, or take a breather and gather yourself. No fotos, no videos! And keep your shirt on!","icon-id":"iba707b2010","label":"Junkyard"},"geometry":{"type":"Point","coordinates":[14.999173,52.3018828,0]}},{"type":"Feature","properties":{"name":"Weinbar","description":"The Garbicz cult classic just got reinvented. And that means: more wine, more bubbles. A better, even more fun program including vinyl DJs and karaoke. Even a Champagne tasting! Let‘s get winy.","icon-id":"ibc4555100b","label":"Weinbar"},"geometry":{"type":"Point","coordinates":[15.0012094,52.3031723,0]}},{"type":"Feature","properties":{"name":"Loco Paraiso","description":"Welcome to a crazy paradise that blends Mexico’s vibrant soul with Berlin’s creative chaos in the depths of the Polish forest. Join us for a four-day burst of sonic, sabor, and soul.","icon-id":"ibc4555100b","label":"Loco Paraiso"},"geometry":{"type":"Point","coordinates":[14.9989704,52.3026878,0]}},{"type":"Feature","properties":{"name":"NerdWald\n","description":"The Nerdwald, a nerdy little forest. Wander around, get confused and explore.<br><br><br><br>Santo Culo, by Black Hole Crew<br><br>holy body rumble radio experience<br><br><br><br>Cubed Dream 2.0 by Artificial Owl<br><br>Cubed stands for the mathematical high3 – the third dimension with its simplest form of the cube. The virtual world of image and film nowadays works with layers which can be superimposed on the computer. Layers, as they were once used by the old masters of fine arts to increase the tangible depth of a painting. ArtificialOwl works with exactly these layers in the installation. Layers of various materials that break up space and time. Layers that make the wind not only tangible but also visible.<br><br>Dream – stands for the personal fascination of psychological experiences that are often confusing, bottomless, up to a transcendental experience. Cubed Dream – is an installation to marvel at. A unique experience of light, illusion, the third space which accompanies the guest into a day (waking) dream. Cubed Dream is an immersive 3D 4-point projection installation.<br><br><br><br>KlangNetz by FlashClash<br><br>FlashClash https://flashclash.de/<br>Since 2013, FlashClash has been transforming spaces into audiovisual experiences – for theaters, conferences and clubs. The focus is not on the technology, but on the effect: the interplay of image, sound, light and space, forming immersive, interactive installations.<br><br>KlangNetz<br>The audiovisual installation consist of a hanging net of LED stripes. It simulates a network from junction points and their connections, where each intersection is linked to a sound.When a light impulse reaches an intersection, a chain reaction of light and sound spreads through the installation.<br><br><br><br>Breakthrough Vermouth Bar, by Mascha and the Maschetees<br><br>Beschreibung: A hidden spot in the Nerdwald where the music fades just enough to make room for something unexpected. Wander through our installation, settle in for a game of backgammon or chess, enjoy a vermouth or Negroni, and let curiosity lead the way. The best encounters are often the ones you never planned.<br><br><br><br>Die Technomaschine by Elias Suske<br><br>Beschreibung: Die Technomaschine macht euch zu Produzent*innen eures eigenen Raves. Intuitiv, kollaborativ und nur für den Moment. Kopfhörer auf und abtauchen. <br><br><br><br>MoonProjection by AIOS<br><br>Beschreibung: \"Mittels eines Kleinteleskopes und einer Okularkamera wird der Mond live auf eine Leinwand projiziert. Zum Ansehen. Zum Beobachten. Zum verweilen, Gedanken machen und auch für den ganzen Rest! Wenn das Wetter passt kommt vorbei und freut euch!\"<br><br><br><br>Everything sound better in a Bathroom by Anthony Hüseyin<br><br>Set deep in the forest to reset our perspective on systemic division, Everything Sounds Better in the Bathroom transforms a wildflower-filled toilet into a space of reclamation. Through the recorded stories, songs, and humming of anonymous trans and non-binary participants, the installation invites the audience to stop, listen, and witness their lived experiences and challenges.<br><br><br><br>You are a line by Das Shining<br><br>You Are the Line transforms dancing bodies into moving drawings of light by capturing their contours in real time and projecting them onto the surrounding architecture with three laser projectors. The dancers become performers and image-makers—the central figures of the party, without whose movement the installation would not exist. Referencing the ancient story of Dibutades tracing a shadow, the work translates the origin of drawing into a contemporary choreography of bodies, data, light and space.<br><br><br><br>Crust by Acid Waffle<br><br>CRUST is a series of artworks that breathe life into raw, textured materials like tree bark and hand-formed aluminum plates.<br><br>CRUST invites viewers to explore the beauty and vitality of textures, evoking a sense of wonder and connection through its hypnotic, soothing visual rhythms.","icon-id":"i0d309f2984","label":"NerdWald"},"geometry":{"type":"Point","coordinates":[15.00289,52.3016516,0]}},{"type":"Feature","properties":{"name":"Pleasure Island","description":"Welcome to PLEASURE ISLAND – where afro meets house, disco and trance. From first glance to final track, this is a space for self invention, connection and release. Come radiant, come restless, come ready to disappear into the music and emerge as something new. <br>Softness is power. Pleasure is practice. Sexy, juicy, cute.","icon-id":"ibc4555100b","label":"Pleasure Island"},"geometry":{"type":"Point","coordinates":[14.9998042,52.3014139,0]}},{"type":"Feature","properties":{"name":"Wald","description":"Get ready to hit the Wald floor! This is the place to be if you love hard, driving techno beats that will get you dancing all night long. With a straight-forward, energetic vibe, this spot is perfect for those who crave the heavier, more energetic sounds. The light setup is next level, creating a super cool atmosphere, and the laser show will blow your mind and elevate your dance experience to the next level.","icon-id":"ibc4555100b","label":"Wald"},"geometry":{"type":"Point","coordinates":[15.0042762,52.301946,0]}},{"type":"Feature","properties":{"name":"See\n","description":"See floor is the village square of Garbicz Festival. And its rule is: Everything is allowed! Everything must be! Start the afternoon with an onstage cooking show, carefully curated music or folkloric concerts, or enjoy cabaret and drag performances in the evening. This goes all the way to mindless niche raving through the night.","icon-id":"ibc4555100b","label":"See"},"geometry":{"type":"Point","coordinates":[15.002956,52.3003525,0]}},{"type":"Feature","properties":{"name":"Trucklock","icon-id":"i869ba2ea03","label":"Trucklock"},"geometry":{"type":"Point","coordinates":[15.0025425,52.3019534,0]}},{"type":"Feature","properties":{"name":"Chargers","icon-id":"i2950cb3d61","label":"Chargers"},"geometry":{"type":"Point","coordinates":[15.0025197,52.3020436,0]}},{"type":"Feature","properties":{"icon-id":"i553e53a1ec","category":"water"},"geometry":{"type":"Point","coordinates":[14.9989261,52.3017477,0]}},{"type":"Feature","properties":{"icon-id":"i99345cbd7b","category":"wc"},"geometry":{"type":"Point","coordinates":[15.0052454,52.3004977,0]}},{"type":"Feature","properties":{"name":"Szorrys Top-up","icon-id":"ia7203a5d47","label":"Szorrys Top-up","category":"topup"},"geometry":{"type":"Point","coordinates":[15.0048051,52.300049,0]}},{"type":"Feature","properties":{"name":"Emergency Exit","icon-id":"i6adf16590e","label":"Emergency Exit"},"geometry":{"type":"Point","coordinates":[15.0028783,52.305353,0]}},{"type":"Feature","properties":{"name":"Emergency Exit","icon-id":"i051ab44c00","label":"Emergency Exit"},"geometry":{"type":"Point","coordinates":[14.995948,52.3080912,0]}},{"type":"Feature","properties":{"name":"Ambient","description":"Ambient 26 — curated by LILA Collective<br>An anchor and a portal. A sanctuary for deep listening, shared presence, and sacred futurism.<br>The Ambient Floor is the festival's inner chamber — a space designed not for spectacle, but for encounter: with sound, with self, with others. Here, music doesn't push energy forward; it holds space, presence and connection and supports long-form, immersive listening.","icon-id":"ibc4555100b","label":"Ambient"},"geometry":{"type":"Point","coordinates":[14.9986503,52.3014988,0]}},{"type":"Feature","properties":{"name":"If you're walking, walk this way","stroke":"#000000","stroke-opacity":1,"stroke-width":1.2,"label":"If you're walking, walk this way"},"geometry":{"type":"LineString","coordinates":[[14.9949883,52.3096466,0],[14.9952726,52.3089611,0],[14.9959002,52.3081772,0],[14.9970396,52.3079433,0]]}},{"type":"Feature","properties":{"name":"A Frames","stroke":"#000000","stroke-opacity":1,"stroke-width":3.701,"fill":"#000000","fill-opacity":0.30196078431372547,"label":"A Frames"},"geometry":{"type":"Polygon","coordinates":[[[14.9970123,52.3067223,0],[14.997066,52.3064369,0],[14.9971625,52.3063648,0],[14.9973503,52.3064205,0],[14.997361,52.3064894,0],[14.9974951,52.3065714,0],[14.9974737,52.3067059,0],[14.9970123,52.3067223,0]]]}},{"type":"Feature","properties":{"name":"Workshops","icon-id":"i69424bb821","label":"Workshops"},"geometry":{"type":"Point","coordinates":[15.0002534,52.3026518,0]}},{"type":"Feature","properties":{"name":"Temple","icon-id":"i4db80ebfbe","label":"Temple"},"geometry":{"type":"Point","coordinates":[15.00034,52.3025539,0]}},{"type":"Feature","properties":{"name":"Locker","icon-id":"i869ba2ea03","label":"Locker"},"geometry":{"type":"Point","coordinates":[15.0012631,52.3018714,0]}},{"type":"Feature","properties":{"name":"C8","stroke":"#f9a825","stroke-opacity":1,"stroke-width":1.2,"fill":"#f9a825","fill-opacity":0.30196078431372547,"label":"C8"},"geometry":{"type":"Polygon","coordinates":[[[15.0014438,52.3036156,0],[15.0016182,52.3033597,0],[15.0018542,52.3032203,0],[15.0025247,52.3030793,0],[15.0026991,52.3033335,0],[15.0014438,52.3036156,0]]]}},{"type":"Feature","properties":{"name":"C9","stroke":"#f9a825","stroke-opacity":1,"stroke-width":1.2,"fill":"#f9a825","fill-opacity":0.30196078431372547,"label":"C9"},"geometry":{"type":"Polygon","coordinates":[[[15.0027754,52.3033104,0],[15.0026225,52.3030595,0],[15.0029068,52.3030054,0],[15.003505,52.3029332,0],[15.0044545,52.3028446,0],[15.0044679,52.3028905,0],[15.0027754,52.3033104,0]]]}},{"type":"Feature","properties":{"name":"N3","stroke":"#f48fb1","stroke-opacity":1,"stroke-width":1.2,"fill":"#f48fb1","fill-opacity":0.30196078431372547,"label":"N3"},"geometry":{"type":"Polygon","coordinates":[[[15.0008919,52.3016688,0],[15.0006398,52.301554,0],[15.0002483,52.3016623,0],[15.0001999,52.3015671,0],[15.000554,52.3014523,0],[15.0005862,52.3012096,0],[15.001879,52.3007962,0],[15.0020292,52.3010095,0],[15.0013855,52.3012129,0],[15.0012889,52.3015803,0],[15.0008919,52.3016688,0]]]}},{"type":"Feature","properties":{"icon-id":"i8218de6352"},"geometry":{"type":"Point","coordinates":[15.0006881,52.3014277,0]}},{"type":"Feature","properties":{"name":"N4","stroke":"#f48fb1","stroke-opacity":1,"stroke-width":1.2,"fill":"#f48fb1","fill-opacity":0.30196078431372547,"label":"N4"},"geometry":{"type":"Polygon","coordinates":[[[15.0024355,52.3011413,0],[15.0023496,52.3010691,0],[15.0023013,52.3009543,0],[15.0028646,52.3007968,0],[15.0029826,52.3009576,0],[15.0024355,52.3011413,0]]]}},{"type":"Feature","properties":{"icon-id":"i8218de6352"},"geometry":{"type":"Point","coordinates":[15.0024301,52.3009838,0]}},{"type":"Feature","properties":{"name":"N5","stroke":"#f48fb1","stroke-opacity":1,"stroke-width":1.2,"fill":"#f48fb1","fill-opacity":0.30196078431372547,"label":"N5"},"geometry":{"type":"Polygon","coordinates":[[[15.0053726,52.3007099,0],[15.0049542,52.3008509,0],[15.0048576,52.3009559,0],[15.004981,52.3010773,0],[15.0042568,52.3008936,0],[15.0040637,52.3007919,0],[15.0049327,52.3005787,0],[15.0053726,52.3007099,0]]]}},{"type":"Feature","properties":{"icon-id":"i8218de6352"},"geometry":{"type":"Point","coordinates":[15.0044392,52.300805,0]}},{"type":"Feature","properties":{"name":"Pier","icon-id":"i6cedcd9a7b","label":"Pier"},"geometry":{"type":"Point","coordinates":[15.0037545,52.299355,0]}},{"type":"Feature","properties":{"name":"Urinals","icon-id":"genderMale","label":"Urinals","category":"wc"},"geometry":{"type":"Point","coordinates":[15.003314,52.3004046,0]}},{"type":"Feature","properties":{"icon-id":"i7706a39b1f"},"geometry":{"type":"Point","coordinates":[15.0039998,52.3005705,0]}},{"type":"Feature","properties":{"name":"Polish Food","icon-id":"icd7dd27b21","label":"Polish Food","category":"food"},"geometry":{"type":"Point","coordinates":[14.9962587,52.308145,0]}},{"type":"Feature","properties":{"name":"W3","stroke":"#f9a825","stroke-opacity":1,"stroke-width":1.2,"fill":"#f9a825","fill-opacity":0.30196078431372547,"label":"W3"},"geometry":{"type":"Polygon","coordinates":[[[15.0028956,52.305194,0],[15.0026703,52.3047315,0],[15.0036198,52.3044855,0],[15.0028956,52.305194,0]]]}},{"type":"Feature","properties":{"name":"Team & Guest Parking","stroke":"#b2ebf2","stroke-opacity":1,"stroke-width":1.2,"fill":"#b2ebf2","fill-opacity":0.30196078431372547,"label":"Team & Guest Parking"},"geometry":{"type":"Polygon","coordinates":[[[14.9912893,52.303533,0],[14.9917935,52.3026867,0],[14.9931239,52.3026145,0],[14.9927269,52.3034346,0],[14.9912893,52.303533,0]]]}},{"type":"Feature","properties":{"name":"Village Shop","icon-id":"i4bd184dea0","label":"Village Shop"},"geometry":{"type":"Point","coordinates":[14.9881827,52.3099707,0]}},{"type":"Feature","properties":{"name":"Bee Circus","stroke":"#f9a825","stroke-opacity":1,"stroke-width":1.2,"fill":"#f9a825","fill-opacity":0.30196078431372547,"label":"Bee Circus"},"geometry":{"type":"Polygon","coordinates":[[[14.9930176,52.3102538,0],[14.9930337,52.309893,0],[14.9939618,52.3098995,0],[14.9939618,52.3101095,0],[14.9935112,52.3101095,0],[14.9935058,52.3102669,0],[14.9930176,52.3102538,0]]]}},{"type":"Feature","properties":{"icon-id":"i99345cbd7b","category":"wc"},"geometry":{"type":"Point","coordinates":[14.994115,52.3100776,0]}},{"type":"Feature","properties":{"icon-id":"i7706a39b1f"},"geometry":{"type":"Point","coordinates":[14.994115,52.3099792,0]}},{"type":"Feature","properties":{"icon-id":"i15cc644b5f"},"geometry":{"type":"Point","coordinates":[14.9937341,52.3100546,0]}},{"type":"Feature","properties":{"icon-id":"i19ff75cb77"},"geometry":{"type":"Point","coordinates":[14.9934552,52.3099857,0]}},{"type":"Feature","properties":{"name":"Crew","stroke":"#000000","stroke-opacity":1,"stroke-width":1.2,"fill":"#000000","fill-opacity":0.30196078431372547,"label":"Crew"},"geometry":{"type":"Polygon","coordinates":[[[14.9935058,52.3102669,0],[14.9935112,52.3101095,0],[14.9937502,52.3101202,0],[14.9937502,52.3102645,0],[14.9935058,52.3102669,0]]]}},{"type":"Feature","properties":{"name":"Sacred Space","stroke":"#ff5252","stroke-opacity":1,"stroke-width":1.2,"fill":"#ff5252","fill-opacity":0.30196078431372547,"label":"Sacred Space"},"geometry":{"type":"Polygon","coordinates":[[[14.9937502,52.3102645,0],[14.9937502,52.3101202,0],[14.9939618,52.3101095,0],[14.9939755,52.3102645,0],[14.9937502,52.3102645,0]]]}},{"type":"Feature","properties":{"name":"Food & Drink","icon-id":"i415ce9b5b9","label":"Food & Drink"},"geometry":{"type":"Point","coordinates":[14.9929721,52.3101761,0]}},{"type":"Feature","properties":{"name":"Bee Circus Parking","stroke":"#000000","stroke-opacity":1,"stroke-width":1.2,"fill":"#000000","fill-opacity":0.30196078431372547,"label":"Bee Circus Parking"},"geometry":{"type":"Polygon","coordinates":[[[14.992047,52.3099078,0],[14.9920604,52.3097585,0],[14.993018,52.3098077,0],[14.9930019,52.3099586,0],[14.992047,52.3099078,0]]]}},{"type":"Feature","properties":{"name":"If you're driving, drive this way","stroke":"#000000","stroke-opacity":1,"stroke-width":1.2,"label":"If you're driving, drive this way"},"geometry":{"type":"LineString","coordinates":[[14.9951036,52.3096897,0],[14.9968738,52.3100242,0],[14.9978984,52.3103096,0],[14.9984992,52.3100341,0],[14.9984295,52.3094601,0],[14.9982149,52.3088042,0],[14.9984241,52.3081088,0]]}},{"type":"Feature","properties":{"name":"Driving road","stroke":"#000000","stroke-opacity":1,"stroke-width":1.2,"label":"Driving road"},"geometry":{"type":"LineString","coordinates":[[14.9986222,52.3077203,0],[14.9984076,52.3076415,0],[14.9970396,52.3079433,0],[14.996412,52.3091437,0]]}}]}